{
"type": "FeatureCollection",
"name": "buildings",
"crs": { "type": "name", "properties": { "name": "urn:ogc:def:crs:OGC:1.3:CRS84" } },
"features": [
{ "type": "Feature", "properties": { "building_id": "gsr_way_610079716", "use_type": "office", "heated_area_m2": 24744.72, "archetype_id": "provisional_v0_from_delivery_use_type", "terminal_type": "fan_coil", "data_version": "guanggu-real-loads-synthetic-v0-2021-01-08" }, "geometry": { "type": "Polygon", "coordinates": [ [ [ 114.4012156, 30.4766644, 0.0 ], [ 114.4015765, 30.4766702, 0.0 ], [ 114.4015701, 30.4769627, 0.0 ], [ 114.4012092, 30.4769568, 0.0 ], [ 114.4012156, 30.4766644, 0.0 ] ] ] } },
{ "type": "Feature", "properties": { "building_id": "gsr_way_1314562851", "use_type": "sports_recreation", "heated_area_m2": 264.06, "archetype_id": "provisional_v0_from_delivery_use_type", "terminal_type": "fan_coil", "data_version": "guanggu-real-loads-synthetic-v0-2021-01-08" }, "geometry": { "type": "Polygon", "coordinates": [ [ [ 114.4010226, 30.4766597, 0.0 ], [ 114.4009969, 30.4766738, 0.0 ], [ 114.4009776, 30.476694, 0.0 ], [ 114.400966600000018, 30.4767184, 0.0 ], [ 114.4009649, 30.4767446, 0.0 ], [ 114.4009727, 30.4767699, 0.0 ], [ 114.4009893, 30.4767919, 0.0 ], [ 114.4010155, 30.4768096, 0.0 ], [ 114.4010472, 30.4768185, 0.0 ], [ 114.4010805, 30.4768176, 0.0 ], [ 114.4011115, 30.476807, 0.0 ], [ 114.4011364, 30.476788, 0.0 ], [ 114.4011524, 30.4767628, 0.0 ], [ 114.4011575, 30.4767344, 0.0 ], [ 114.4011511, 30.4767062, 0.0 ], [ 114.4011339, 30.4766816, 0.0 ], [ 114.4011106, 30.4766648, 0.0 ], [ 114.4010824, 30.476655, 0.0 ], [ 114.4010521, 30.4766532, 0.0 ], [ 114.4010226, 30.4766597, 0.0 ] ] ] } },
{ "type": "Feature", "properties": { "building_id": "gsr_way_1314562852", "use_type": "health_service", "heated_area_m2": 530.74, "archetype_id": "provisional_v0_from_delivery_use_type", "terminal_type": "fan_coil", "data_version": "guanggu-real-loads-synthetic-v0-2021-01-08" }, "geometry": { "type": "Polygon", "coordinates": [ [ [ 114.401875200000021, 30.4767662, 0.0 ], [ 114.4018696, 30.476793, 0.0 ], [ 114.4018542, 30.4768168, 0.0 ], [ 114.4018308, 30.4768351, 0.0 ], [ 114.4018017, 30.4768459, 0.0 ], [ 114.4017702, 30.4768481, 0.0 ], [ 114.4017395, 30.4768414, 0.0 ], [ 114.401713, 30.4768265, 0.0 ], [ 114.4016932, 30.4768046, 0.0 ], [ 114.4016829, 30.4767784, 0.0 ], [ 114.401683, 30.4767506, 0.0 ], [ 114.4016938, 30.4767245, 0.0 ], [ 114.4017139, 30.4767028, 0.0 ], [ 114.4017411, 30.476688, 0.0 ], [ 114.4017724, 30.476681700000011, 0.0 ], [ 114.4018044, 30.4766846, 0.0 ], [ 114.4018331, 30.4766961, 0.0 ], [ 114.401855900000015, 30.476715, 0.0 ], [ 114.4018705, 30.4767392, 0.0 ], [ 114.401875200000021, 30.4767662, 0.0 ] ] ] } },
{ "type": "Feature", "properties": { "building_id": "gsr_way_610079720", "use_type": "commercial", "heated_area_m2": 317.95, "archetype_id": "provisional_v0_from_delivery_use_type", "terminal_type": "fan_coil", "data_version": "guanggu-real-loads-synthetic-v0-2021-01-08" }, "geometry": { "type": "Polygon", "coordinates": [ [ [ 114.401265, 30.4763624, 0.0 ], [ 114.4016095, 30.4763711, 0.0 ], [ 114.4016166, 30.4762864, 0.0 ], [ 114.4012682, 30.4762751, 0.0 ], [ 114.401265, 30.4763624, 0.0 ] ] ] } },
{ "type": "Feature", "properties": { "building_id": "gsr_way_610079719", "use_type": "office", "heated_area_m2": 6329.89, "archetype_id": "provisional_v0_from_delivery_use_type", "terminal_type": "fan_coil", "data_version": "guanggu-real-loads-synthetic-v0-2021-01-08" }, "geometry": { "type": "Polygon", "coordinates": [ [ [ 114.4009775, 30.4764951, 0.0 ], [ 114.401259, 30.4765036, 0.0 ], [ 114.401265, 30.4763624, 0.0 ], [ 114.4012682, 30.4762751, 0.0 ], [ 114.400897900000018, 30.476261, 0.0 ], [ 114.4008925, 30.476493, 0.0 ], [ 114.4009775, 30.4764951, 0.0 ] ] ] } },
{ "type": "Feature", "properties": { "building_id": "gsr_way_610079721", "use_type": "office", "heated_area_m2": 6408.15, "archetype_id": "provisional_v0_from_delivery_use_type", "terminal_type": "fan_coil", "data_version": "guanggu-real-loads-synthetic-v0-2021-01-08" }, "geometry": { "type": "Polygon", "coordinates": [ [ [ 114.4015999, 30.4765253, 0.0 ], [ 114.4016095, 30.4763711, 0.0 ], [ 114.4016166, 30.4762864, 0.0 ], [ 114.4019745, 30.4762996, 0.0 ], [ 114.4019649, 30.4765346, 0.0 ], [ 114.4015999, 30.4765253, 0.0 ] ] ] } }
]
}
