{
"type": "FeatureCollection",
"name": "candidate_network",
"crs": { "type": "name", "properties": { "name": "urn:ogc:def:crs:OGC:1.3:CRS84" } },
"features": [
{ "type": "Feature", "properties": { "segment_id": "synthetic_v0_edge_1", "node_from": "synthetic_v0_station", "node_to": "gsr_way_610079716", "length_m": 101.33245168218474, "data_version": "synthetic_v0", "data_classification": "synthetic_v0_not_real_road" }, "geometry": { "type": "LineString", "coordinates": [ [ 114.40038228719493, 30.476551388725632 ], [ 114.401392860270306, 30.47681352536792 ] ] } },
{ "type": "Feature", "properties": { "segment_id": "synthetic_v0_edge_2", "node_from": "synthetic_v0_station", "node_to": "gsr_way_1314562851", "length_m": 68.32334900327956, "data_version": "synthetic_v0", "data_classification": "synthetic_v0_not_real_road" }, "geometry": { "type": "LineString", "coordinates": [ [ 114.40038228719493, 30.476551388725632 ], [ 114.401060863906011, 30.476736042451908 ] ] } },
{ "type": "Feature", "properties": { "segment_id": "synthetic_v0_edge_3", "node_from": "synthetic_v0_station", "node_to": "gsr_way_1314562852", "length_m": 136.18446720004437, "data_version": "synthetic_v0", "data_classification": "synthetic_v0_not_real_road" }, "geometry": { "type": "LineString", "coordinates": [ [ 114.40038228719493, 30.476551388725632 ], [ 114.401778420756614, 30.476764976096561 ] ] } },
{ "type": "Feature", "properties": { "segment_id": "synthetic_v0_edge_4", "node_from": "synthetic_v0_station", "node_to": "gsr_way_610079720", "length_m": 104.5999406685099, "data_version": "synthetic_v0", "data_classification": "synthetic_v0_not_real_road" }, "geometry": { "type": "LineString", "coordinates": [ [ 114.40038228719493, 30.476551388725632 ], [ 114.401438996384755, 30.476323642295583 ] ] } },
{ "type": "Feature", "properties": { "segment_id": "synthetic_v0_edge_5", "node_from": "synthetic_v0_station", "node_to": "gsr_way_610079719", "length_m": 69.490881256523878, "data_version": "synthetic_v0", "data_classification": "synthetic_v0_not_real_road" }, "geometry": { "type": "LineString", "coordinates": [ [ 114.40038228719493, 30.476551388725632 ], [ 114.401079063517898, 30.47638286701083 ] ] } },
{ "type": "Feature", "properties": { "segment_id": "synthetic_v0_edge_6", "node_from": "synthetic_v0_station", "node_to": "gsr_way_610079721", "length_m": 135.92650834484229, "data_version": "synthetic_v0", "data_classification": "synthetic_v0_not_real_road" }, "geometry": { "type": "LineString", "coordinates": [ [ 114.40038228719493, 30.476551388725632 ], [ 114.401788136557826, 30.476411805404808 ] ] } }
]
}
