{
"type": "FeatureCollection",
"name": "buildings",
"crs": { "type": "name", "properties": { "name": "urn:ogc:def:crs:OGC:1.3:CRS84" } },
"features": [
{ "type": "Feature", "properties": { "building_id": "gsr_way_1230866324", "use_type": "office", "heated_area_m2": 8425.6, "archetype_id": "provisional_v0_from_delivery_use_type", "terminal_type": "fan_coil", "ventilation_system": "dedicated_fresh_air", "fresh_air_load_included": true, "data_version": "guanggu-real-loads-synthetic-v0-2021-01-08" }, "geometry": { "type": "Polygon", "coordinates": [ [ [ 114.3967125, 30.4798551, 0.0 ], [ 114.3970817, 30.4798224, 0.0 ], [ 114.3970643, 30.4796759, 0.0 ], [ 114.3971522, 30.4796681, 0.0 ], [ 114.3971146, 30.4793525, 0.0 ], [ 114.3968343, 30.4793773, 0.0 ], [ 114.3968625, 30.4796139, 0.0 ], [ 114.3966856, 30.4796296, 0.0 ], [ 114.3967125, 30.4798551, 0.0 ] ] ] } },
{ "type": "Feature", "properties": { "building_id": "gsr_way_1241369277", "use_type": "public_service", "heated_area_m2": 394.65, "archetype_id": "provisional_v0_from_delivery_use_type", "terminal_type": "fan_coil", "ventilation_system": "dedicated_fresh_air", "fresh_air_load_included": true, "data_version": "guanggu-real-loads-synthetic-v0-2021-01-08" }, "geometry": { "type": "Polygon", "coordinates": [ [ [ 114.397758200000013, 30.4811634, 0.0 ], [ 114.3979303, 30.481148099999988, 0.0 ], [ 114.3979048, 30.4809351, 0.0 ], [ 114.3977327, 30.4809504, 0.0 ], [ 114.397758200000013, 30.4811634, 0.0 ] ] ] } },
{ "type": "Feature", "properties": { "building_id": "gsr_way_1314562851", "use_type": "sports_recreation", "heated_area_m2": 264.06, "archetype_id": "provisional_v0_from_delivery_use_type", "terminal_type": "fan_coil", "ventilation_system": "dedicated_fresh_air", "fresh_air_load_included": true, "data_version": "guanggu-real-loads-synthetic-v0-2021-01-08" }, "geometry": { "type": "Polygon", "coordinates": [ [ [ 114.4010226, 30.4766597, 0.0 ], [ 114.4009969, 30.4766738, 0.0 ], [ 114.4009776, 30.476694, 0.0 ], [ 114.400966600000018, 30.4767184, 0.0 ], [ 114.4009649, 30.4767446, 0.0 ], [ 114.4009727, 30.4767699, 0.0 ], [ 114.4009893, 30.4767919, 0.0 ], [ 114.4010155, 30.4768096, 0.0 ], [ 114.4010472, 30.4768185, 0.0 ], [ 114.4010805, 30.4768176, 0.0 ], [ 114.4011115, 30.476807, 0.0 ], [ 114.4011364, 30.476788, 0.0 ], [ 114.4011524, 30.4767628, 0.0 ], [ 114.4011575, 30.4767344, 0.0 ], [ 114.4011511, 30.4767062, 0.0 ], [ 114.4011339, 30.4766816, 0.0 ], [ 114.4011106, 30.4766648, 0.0 ], [ 114.4010824, 30.476655, 0.0 ], [ 114.4010521, 30.4766532, 0.0 ], [ 114.4010226, 30.4766597, 0.0 ] ] ] } },
{ "type": "Feature", "properties": { "building_id": "gsr_way_1314562852", "use_type": "health_service", "heated_area_m2": 530.74, "archetype_id": "provisional_v0_from_delivery_use_type", "terminal_type": "fan_coil", "ventilation_system": "dedicated_fresh_air", "fresh_air_load_included": true, "data_version": "guanggu-real-loads-synthetic-v0-2021-01-08" }, "geometry": { "type": "Polygon", "coordinates": [ [ [ 114.401875200000021, 30.4767662, 0.0 ], [ 114.4018696, 30.476793, 0.0 ], [ 114.4018542, 30.4768168, 0.0 ], [ 114.4018308, 30.4768351, 0.0 ], [ 114.4018017, 30.4768459, 0.0 ], [ 114.4017702, 30.4768481, 0.0 ], [ 114.4017395, 30.4768414, 0.0 ], [ 114.401713, 30.4768265, 0.0 ], [ 114.4016932, 30.4768046, 0.0 ], [ 114.4016829, 30.4767784, 0.0 ], [ 114.401683, 30.4767506, 0.0 ], [ 114.4016938, 30.4767245, 0.0 ], [ 114.4017139, 30.4767028, 0.0 ], [ 114.4017411, 30.476688, 0.0 ], [ 114.4017724, 30.476681700000011, 0.0 ], [ 114.4018044, 30.4766846, 0.0 ], [ 114.4018331, 30.4766961, 0.0 ], [ 114.401855900000015, 30.476715, 0.0 ], [ 114.4018705, 30.4767392, 0.0 ], [ 114.401875200000021, 30.4767662, 0.0 ] ] ] } },
{ "type": "Feature", "properties": { "building_id": "gsr_way_1347774898", "use_type": "financial_service", "heated_area_m2": 152850.28, "archetype_id": "provisional_v0_from_delivery_use_type", "terminal_type": "fan_coil", "ventilation_system": "dedicated_fresh_air", "fresh_air_load_included": true, "data_version": "guanggu-real-loads-synthetic-v0-2021-01-08" }, "geometry": { "type": "Polygon", "coordinates": [ [ [ 114.3972936, 30.4772875, 0.0 ], [ 114.3972044, 30.4765535, 0.0 ], [ 114.3972994, 30.4765449, 0.0 ], [ 114.3972927, 30.476489900000011, 0.0 ], [ 114.3973319, 30.4764552, 0.0 ], [ 114.3972918, 30.4764235, 0.0 ], [ 114.397502, 30.4762343, 0.0 ], [ 114.3975329, 30.4762621, 0.0 ], [ 114.3975818, 30.476217, 0.0 ], [ 114.397646, 30.476219, 0.0 ], [ 114.3976495, 30.4761358, 0.0 ], [ 114.3985007, 30.4761627, 0.0 ], [ 114.39849, 30.4764142, 0.0 ], [ 114.3984019, 30.4764108, 0.0 ], [ 114.3983933, 30.4766419, 0.0 ], [ 114.3981058, 30.4766339, 0.0 ], [ 114.3981144, 30.4764028, 0.0 ], [ 114.3976937, 30.4763892, 0.0 ], [ 114.3976752, 30.4764068, 0.0 ], [ 114.3977103, 30.4764336, 0.0 ], [ 114.3975514, 30.4765867, 0.0 ], [ 114.3975162, 30.4765605, 0.0 ], [ 114.3974979, 30.4765776, 0.0 ], [ 114.3975394, 30.4769337, 0.0 ], [ 114.3978031, 30.4769085, 0.0 ], [ 114.3978352, 30.4771586, 0.0 ], [ 114.3975716, 30.4771838, 0.0 ], [ 114.3975811, 30.4772615, 0.0 ], [ 114.3972936, 30.4772875, 0.0 ] ] ] } },
{ "type": "Feature", "properties": { "building_id": "gsr_way_1347774909", "use_type": "mixed_office_public_service", "heated_area_m2": 146291.42, "archetype_id": "provisional_v0_from_delivery_use_type", "terminal_type": "fan_coil", "ventilation_system": "dedicated_fresh_air", "fresh_air_load_included": true, "data_version": "guanggu-real-loads-synthetic-v0-2021-01-08" }, "geometry": { "type": "Polygon", "coordinates": [ [ [ 114.4025403, 30.4814823, 0.0 ], [ 114.4024912, 30.4810836, 0.0 ], [ 114.4028504, 30.4810507, 0.0 ], [ 114.402942, 30.4810429, 0.0 ], [ 114.4030816, 30.4808844, 0.0 ], [ 114.4030741, 30.4808167, 0.0 ], [ 114.4030371, 30.4805134, 0.0 ], [ 114.4034847, 30.4804729, 0.0 ], [ 114.4035217, 30.4807762, 0.0 ], [ 114.4035685, 30.4811532, 0.0 ], [ 114.4034863, 30.4811607, 0.0 ], [ 114.4033384, 30.4813236, 0.0 ], [ 114.4033489, 30.4814076, 0.0 ], [ 114.4028996, 30.4814494, 0.0 ], [ 114.4025403, 30.4814823, 0.0 ] ] ] } },
{ "type": "Feature", "properties": { "building_id": "gsr_way_610079646", "use_type": "office", "heated_area_m2": 8077.8, "archetype_id": "provisional_v0_from_delivery_use_type", "terminal_type": "fan_coil", "ventilation_system": "dedicated_fresh_air", "fresh_air_load_included": true, "data_version": "guanggu-real-loads-synthetic-v0-2021-01-08" }, "geometry": { "type": "Polygon", "coordinates": [ [ [ 114.4018843, 30.4791667, 0.0 ], [ 114.4018849, 30.479197100000011, 0.0 ], [ 114.4019819, 30.4792471, 0.0 ], [ 114.4020379, 30.4791953, 0.0 ], [ 114.4021298, 30.4791566, 0.0 ], [ 114.4021431, 30.4791546, 0.0 ], [ 114.4021548, 30.4791554, 0.0 ], [ 114.4021651, 30.4791577, 0.0 ], [ 114.4021712, 30.4791673, 0.0 ], [ 114.4021669, 30.4793351, 0.0 ], [ 114.4021493, 30.4793547, 0.0 ], [ 114.4021129, 30.4793766, 0.0 ], [ 114.401940300000021, 30.4793936, 0.0 ], [ 114.4019384, 30.4793503, 0.0 ], [ 114.4019315, 30.4793485, 0.0 ], [ 114.4019261, 30.479345799999987, 0.0 ], [ 114.40192, 30.4793412, 0.0 ], [ 114.401915, 30.4793349, 0.0 ], [ 114.4019121, 30.4793275, 0.0 ], [ 114.4019112, 30.4793202, 0.0 ], [ 114.4019115, 30.4793122, 0.0 ], [ 114.4019144, 30.4793043, 0.0 ], [ 114.4018799, 30.4793051, 0.0 ], [ 114.4018845, 30.4794834, 0.0 ], [ 114.4018154, 30.4794845, 0.0 ], [ 114.4018023, 30.4793451, 0.0 ], [ 114.4016879, 30.4793459, 0.0 ], [ 114.4016957, 30.4793743, 0.0 ], [ 114.4016131, 30.479398, 0.0 ], [ 114.4015886, 30.4793569, 0.0 ], [ 114.4015286, 30.4793578, 0.0 ], [ 114.4014731, 30.4793906, 0.0 ], [ 114.4015193, 30.4794323, 0.0 ], [ 114.4014559, 30.4794884, 0.0 ], [ 114.4014056, 30.4794491, 0.0 ], [ 114.4013512, 30.4794956, 0.0 ], [ 114.4012974, 30.4794428, 0.0 ], [ 114.4013448, 30.479406, 0.0 ], [ 114.4011715, 30.4793761, 0.0 ], [ 114.4011711, 30.4793026, 0.0 ], [ 114.4013717, 30.4793002, 0.0 ], [ 114.4014004, 30.4793211, 0.0 ], [ 114.4015219, 30.4792482, 0.0 ], [ 114.4015234, 30.4792137, 0.0 ], [ 114.4014425, 30.4791245, 0.0 ], [ 114.4014891, 30.4790677, 0.0 ], [ 114.4016212, 30.4791679, 0.0 ], [ 114.4016445, 30.4792311, 0.0 ], [ 114.40176630000002, 30.4792118, 0.0 ], [ 114.4017629, 30.4791566, 0.0 ], [ 114.4018361, 30.4790371, 0.0 ], [ 114.4019061, 30.479066, 0.0 ], [ 114.4018843, 30.4791667, 0.0 ] ] ] } },
{ "type": "Feature", "properties": { "building_id": "gsr_way_610079650", "use_type": "office", "heated_area_m2": 1676.64, "archetype_id": "provisional_v0_from_delivery_use_type", "terminal_type": "fan_coil", "ventilation_system": "dedicated_fresh_air", "fresh_air_load_included": true, "data_version": "guanggu-real-loads-synthetic-v0-2021-01-08" }, "geometry": { "type": "Polygon", "coordinates": [ [ [ 114.4011877, 30.4802694, 0.0 ], [ 114.4012058, 30.4801361, 0.0 ], [ 114.4011441, 30.4801298, 0.0 ], [ 114.4011508, 30.4800802, 0.0 ], [ 114.4012956, 30.4798096, 0.0 ], [ 114.4014123, 30.479856, 0.0 ], [ 114.4012846, 30.4800947, 0.0 ], [ 114.4012598, 30.4802767, 0.0 ], [ 114.4011877, 30.4802694, 0.0 ] ] ] } },
{ "type": "Feature", "properties": { "building_id": "gsr_way_610079651", "use_type": "office", "heated_area_m2": 1380.03, "archetype_id": "provisional_v0_from_delivery_use_type", "terminal_type": "fan_coil", "ventilation_system": "dedicated_fresh_air", "fresh_air_load_included": true, "data_version": "guanggu-real-loads-synthetic-v0-2021-01-08" }, "geometry": { "type": "Polygon", "coordinates": [ [ [ 114.400364200000013, 30.4800678, 0.0 ], [ 114.4006145, 30.4801228, 0.0 ], [ 114.4005666, 30.4802848, 0.0 ], [ 114.4003163, 30.480229799999989, 0.0 ], [ 114.400364200000013, 30.4800678, 0.0 ] ] ] } },
{ "type": "Feature", "properties": { "building_id": "gsr_way_610079652", "use_type": "office", "heated_area_m2": 1452.93, "archetype_id": "provisional_v0_from_delivery_use_type", "terminal_type": "fan_coil", "ventilation_system": "dedicated_fresh_air", "fresh_air_load_included": true, "data_version": "guanggu-real-loads-synthetic-v0-2021-01-08" }, "geometry": { "type": "Polygon", "coordinates": [ [ [ 114.4003645, 30.4805744, 0.0 ], [ 114.4003202, 30.480401799999985, 0.0 ], [ 114.4005714, 30.480354, 0.0 ], [ 114.4006157, 30.4805265, 0.0 ], [ 114.4003645, 30.4805744, 0.0 ] ] ] } },
{ "type": "Feature", "properties": { "building_id": "gsr_way_610079653", "use_type": "office", "heated_area_m2": 1091.46, "archetype_id": "provisional_v0_from_delivery_use_type", "terminal_type": "fan_coil", "ventilation_system": "dedicated_fresh_air", "fresh_air_load_included": true, "data_version": "guanggu-real-loads-synthetic-v0-2021-01-08" }, "geometry": { "type": "Polygon", "coordinates": [ [ [ 114.4010858, 30.4805618, 0.0 ], [ 114.4009374, 30.4804711, 0.0 ], [ 114.4010129, 30.4803794, 0.0 ], [ 114.4010854, 30.4804237, 0.0 ], [ 114.4011599, 30.4803332, 0.0 ], [ 114.4012338, 30.4803784, 0.0 ], [ 114.4011778, 30.4804465, 0.0 ], [ 114.4012076, 30.4804647, 0.0 ], [ 114.4011373, 30.4805501, 0.0 ], [ 114.4011095, 30.480533, 0.0 ], [ 114.4010858, 30.4805618, 0.0 ] ] ] } },
{ "type": "Feature", "properties": { "building_id": "gsr_way_610079654", "use_type": "commercial", "heated_area_m2": 1010.1, "archetype_id": "provisional_v0_from_delivery_use_type", "terminal_type": "fan_coil", "ventilation_system": "dedicated_fresh_air", "fresh_air_load_included": true, "data_version": "guanggu-real-loads-synthetic-v0-2021-01-08" }, "geometry": { "type": "Polygon", "coordinates": [ [ [ 114.4007608, 30.480761, 0.0 ], [ 114.400658800000016, 30.4806316, 0.0 ], [ 114.4007683, 30.4805675, 0.0 ], [ 114.400815100000017, 30.4806268, 0.0 ], [ 114.4009215, 30.4805645, 0.0 ], [ 114.4009767, 30.4806346, 0.0 ], [ 114.4007608, 30.480761, 0.0 ] ] ] } },
{ "type": "Feature", "properties": { "building_id": "gsr_way_610079655", "use_type": "commercial", "heated_area_m2": 887.04, "archetype_id": "provisional_v0_from_delivery_use_type", "terminal_type": "fan_coil", "ventilation_system": "dedicated_fresh_air", "fresh_air_load_included": true, "data_version": "guanggu-real-loads-synthetic-v0-2021-01-08" }, "geometry": { "type": "Polygon", "coordinates": [ [ [ 114.4004286, 30.4808559, 0.0 ], [ 114.4003736, 30.480709900000011, 0.0 ], [ 114.4004756, 30.4806813, 0.0 ], [ 114.4005014, 30.4807496, 0.0 ], [ 114.4006327, 30.4807129, 0.0 ], [ 114.400662, 30.4807906, 0.0 ], [ 114.4004286, 30.4808559, 0.0 ] ] ] } },
{ "type": "Feature", "properties": { "building_id": "gsr_way_610079656", "use_type": "corporate_office", "heated_area_m2": 24854.68, "archetype_id": "provisional_v0_from_delivery_use_type", "terminal_type": "fan_coil", "ventilation_system": "dedicated_fresh_air", "fresh_air_load_included": true, "data_version": "guanggu-real-loads-synthetic-v0-2021-01-08" }, "geometry": { "type": "Polygon", "coordinates": [ [ [ 114.4023463, 30.4798876, 0.0 ], [ 114.402311, 30.4795869, 0.0 ], [ 114.4027542, 30.4795429, 0.0 ], [ 114.4027915, 30.4798538, 0.0 ], [ 114.4023463, 30.4798876, 0.0 ] ] ] } },
{ "type": "Feature", "properties": { "building_id": "gsr_way_610079657", "use_type": "mixed_office_financial_service", "heated_area_m2": 25588.4, "archetype_id": "provisional_v0_from_delivery_use_type", "terminal_type": "fan_coil", "ventilation_system": "dedicated_fresh_air", "fresh_air_load_included": true, "data_version": "guanggu-real-loads-synthetic-v0-2021-01-08" }, "geometry": { "type": "Polygon", "coordinates": [ [ [ 114.4030933, 30.480207599999989, 0.0 ], [ 114.403046, 30.4798214, 0.0 ], [ 114.4034067, 30.4797925, 0.0 ], [ 114.4034584, 30.4801769, 0.0 ], [ 114.4030933, 30.480207599999989, 0.0 ] ] ] } },
{ "type": "Feature", "properties": { "building_id": "gsr_way_610079669", "use_type": "office", "heated_area_m2": 12202.32, "archetype_id": "provisional_v0_from_delivery_use_type", "terminal_type": "fan_coil", "ventilation_system": "dedicated_fresh_air", "fresh_air_load_included": true, "data_version": "guanggu-real-loads-synthetic-v0-2021-01-08" }, "geometry": { "type": "Polygon", "coordinates": [ [ [ 114.3979655, 30.4812269, 0.0 ], [ 114.3983627, 30.4811897, 0.0 ], [ 114.3984007, 30.4814912, 0.0 ], [ 114.3987622, 30.4814574, 0.0 ], [ 114.3987901, 30.4816789, 0.0 ], [ 114.3981349, 30.4817401, 0.0 ], [ 114.39812910000002, 30.4816943, 0.0 ], [ 114.3980256, 30.481704, 0.0 ], [ 114.3979655, 30.4812269, 0.0 ] ] ] } },
{ "type": "Feature", "properties": { "building_id": "gsr_way_610079671", "use_type": "office", "heated_area_m2": 29276.15, "archetype_id": "provisional_v0_from_delivery_use_type", "terminal_type": "fan_coil", "ventilation_system": "dedicated_fresh_air", "fresh_air_load_included": true, "data_version": "guanggu-real-loads-synthetic-v0-2021-01-08" }, "geometry": { "type": "Polygon", "coordinates": [ [ [ 114.3977117, 30.4804566, 0.0 ], [ 114.3981666, 30.4804148, 0.0 ], [ 114.3982055, 30.4807292, 0.0 ], [ 114.3977506, 30.480771, 0.0 ], [ 114.3977117, 30.4804566, 0.0 ] ] ] } },
{ "type": "Feature", "properties": { "building_id": "gsr_way_610079672", "use_type": "hotel", "heated_area_m2": 9258.88, "archetype_id": "provisional_v0_from_delivery_use_type", "terminal_type": "fan_coil", "ventilation_system": "dedicated_fresh_air", "fresh_air_load_included": true, "data_version": "guanggu-real-loads-synthetic-v0-2021-01-08" }, "geometry": { "type": "Polygon", "coordinates": [ [ [ 114.397815, 30.4802263, 0.0 ], [ 114.3977569, 30.4797269, 0.0 ], [ 114.3980276, 30.4797035, 0.0 ], [ 114.398044700000014, 30.4798511, 0.0 ], [ 114.3979076, 30.4798629, 0.0 ], [ 114.3979298, 30.4800532, 0.0 ], [ 114.3980575, 30.4800422, 0.0 ], [ 114.3980763, 30.4802037, 0.0 ], [ 114.397815, 30.4802263, 0.0 ] ] ] } },
{ "type": "Feature", "properties": { "building_id": "gsr_way_610079673", "use_type": "office_R&D", "heated_area_m2": 11883.44, "archetype_id": "provisional_v0_from_delivery_use_type", "terminal_type": "fan_coil", "ventilation_system": "dedicated_fresh_air", "fresh_air_load_included": true, "data_version": "guanggu-real-loads-synthetic-v0-2021-01-08" }, "geometry": { "type": "Polygon", "coordinates": [ [ [ 114.3980695, 30.479225, 0.0 ], [ 114.3981102, 30.4795243, 0.0 ], [ 114.3976506, 30.4795706, 0.0 ], [ 114.3976099, 30.4792713, 0.0 ], [ 114.3980695, 30.479225, 0.0 ] ] ] } },
{ "type": "Feature", "properties": { "building_id": "gsr_way_610079674", "use_type": "office", "heated_area_m2": 17006.22, "archetype_id": "provisional_v0_from_delivery_use_type", "terminal_type": "fan_coil", "ventilation_system": "dedicated_fresh_air", "fresh_air_load_included": true, "data_version": "guanggu-real-loads-synthetic-v0-2021-01-08" }, "geometry": { "type": "Polygon", "coordinates": [ [ [ 114.3981264, 30.479181, 0.0 ], [ 114.3985782, 30.479141899999988, 0.0 ], [ 114.398605300000014, 30.4793751, 0.0 ], [ 114.3984651, 30.4793872, 0.0 ], [ 114.3984899, 30.4795997, 0.0 ], [ 114.3986335, 30.4795873, 0.0 ], [ 114.3986621, 30.4798316, 0.0 ], [ 114.398206, 30.4798712, 0.0 ], [ 114.3981783, 30.479633899999985, 0.0 ], [ 114.3982698, 30.479626, 0.0 ], [ 114.3982446, 30.4794098, 0.0 ], [ 114.3981539, 30.4794177, 0.0 ], [ 114.3981264, 30.479181, 0.0 ] ] ] } },
{ "type": "Feature", "properties": { "building_id": "gsr_way_610079675", "use_type": "office", "heated_area_m2": 22847.08, "archetype_id": "provisional_v0_from_delivery_use_type", "terminal_type": "fan_coil", "ventilation_system": "dedicated_fresh_air", "fresh_air_load_included": true, "data_version": "guanggu-real-loads-synthetic-v0-2021-01-08" }, "geometry": { "type": "Polygon", "coordinates": [ [ [ 114.3991011, 30.4799785, 0.0 ], [ 114.399409, 30.4799801, 0.0 ], [ 114.39940780000002, 30.4800495, 0.0 ], [ 114.399437, 30.4800517, 0.0 ], [ 114.3994612, 30.4800628, 0.0 ], [ 114.3995167, 30.48006, 0.0 ], [ 114.3995632, 30.4800669, 0.0 ], [ 114.3996128, 30.4800833, 0.0 ], [ 114.3996577, 30.4801087, 0.0 ], [ 114.3996914, 30.4801346, 0.0 ], [ 114.3997218, 30.4801677, 0.0 ], [ 114.3997418, 30.4802025, 0.0 ], [ 114.3997523, 30.4802376, 0.0 ], [ 114.3997591, 30.4802698, 0.0 ], [ 114.3997714, 30.4802762, 0.0 ], [ 114.3997871, 30.4802908, 0.0 ], [ 114.3997919, 30.4803085, 0.0 ], [ 114.3999926, 30.4802918, 0.0 ], [ 114.4000191, 30.4804771, 0.0 ], [ 114.3997947, 30.4804999, 0.0 ], [ 114.3998104, 30.480601499999985, 0.0 ], [ 114.4001128, 30.4805684, 0.0 ], [ 114.4001379, 30.4807513, 0.0 ], [ 114.3997187, 30.4807987, 0.0 ], [ 114.3996645, 30.4804192, 0.0 ], [ 114.399629600000011, 30.4804022, 0.0 ], [ 114.399605900000012, 30.4803875, 0.0 ], [ 114.3995749, 30.4803793, 0.0 ], [ 114.399554, 30.4803635, 0.0 ], [ 114.3995495, 30.4803414, 0.0 ], [ 114.3995448, 30.480307, 0.0 ], [ 114.399526, 30.480277799999989, 0.0 ], [ 114.3994973, 30.4802578, 0.0 ], [ 114.3994691, 30.4802483, 0.0 ], [ 114.3994313, 30.4802466, 0.0 ], [ 114.399397, 30.4802396, 0.0 ], [ 114.3993812, 30.4802308, 0.0 ], [ 114.3993676, 30.480218, 0.0 ], [ 114.3993655, 30.480198, 0.0 ], [ 114.3993456, 30.4801888, 0.0 ], [ 114.3993317, 30.4801772, 0.0 ], [ 114.3993215, 30.4801615, 0.0 ], [ 114.399101, 30.4801621, 0.0 ], [ 114.3990564, 30.4801, 0.0 ], [ 114.3990117, 30.4800285, 0.0 ], [ 114.3989887, 30.4799836, 0.0 ], [ 114.398956500000011, 30.479922299999984, 0.0 ], [ 114.3989266, 30.4798549, 0.0 ], [ 114.3988993, 30.4797684, 0.0 ], [ 114.3988772, 30.4796841, 0.0 ], [ 114.3988691, 30.4796201, 0.0 ], [ 114.398864900000021, 30.479562, 0.0 ], [ 114.3988615, 30.4794748, 0.0 ], [ 114.398867, 30.479386, 0.0 ], [ 114.398884, 30.47928, 0.0 ], [ 114.3989026, 30.4791871, 0.0 ], [ 114.3989377, 30.4790893, 0.0 ], [ 114.399148, 30.4790894, 0.0 ], [ 114.3991643, 30.4790663, 0.0 ], [ 114.3991867, 30.4790528, 0.0 ], [ 114.3992142, 30.4790499, 0.0 ], [ 114.3992437, 30.479056099999987, 0.0 ], [ 114.3992618, 30.4790764, 0.0 ], [ 114.3992708, 30.479100199999987, 0.0 ], [ 114.3992693, 30.4791227, 0.0 ], [ 114.3992495, 30.4791413, 0.0 ], [ 114.39925150000002, 30.4792815, 0.0 ], [ 114.3989733, 30.479283200000012, 0.0 ], [ 114.3989634, 30.4793436, 0.0 ], [ 114.3989613, 30.4793852, 0.0 ], [ 114.3991575, 30.4793877, 0.0 ], [ 114.3991603, 30.4795832, 0.0 ], [ 114.3989679, 30.4795809, 0.0 ], [ 114.3989709, 30.4796364, 0.0 ], [ 114.3989803, 30.4796786, 0.0 ], [ 114.3992854, 30.4796857, 0.0 ], [ 114.3992867, 30.479865, 0.0 ], [ 114.3990423, 30.4798678, 0.0 ], [ 114.3990585, 30.479905099999989, 0.0 ], [ 114.3990761, 30.479939, 0.0 ], [ 114.3991011, 30.4799785, 0.0 ] ] ] } },
{ "type": "Feature", "properties": { "building_id": "gsr_way_610079679", "use_type": "office", "heated_area_m2": 3092.61, "archetype_id": "provisional_v0_from_delivery_use_type", "terminal_type": "fan_coil", "ventilation_system": "dedicated_fresh_air", "fresh_air_load_included": true, "data_version": "guanggu-real-loads-synthetic-v0-2021-01-08" }, "geometry": { "type": "Polygon", "coordinates": [ [ [ 114.3994339, 30.4782579, 0.0 ], [ 114.3994149, 30.4783021, 0.0 ], [ 114.3995405, 30.4783432, 0.0 ], [ 114.3995623, 30.4783014, 0.0 ], [ 114.399609, 30.4783181, 0.0 ], [ 114.3995966, 30.478351400000012, 0.0 ], [ 114.3996989, 30.4783775, 0.0 ], [ 114.3997359, 30.4783252, 0.0 ], [ 114.3997992, 30.4783237, 0.0 ], [ 114.3998567, 30.4781907, 0.0 ], [ 114.3994202, 30.4780507, 0.0 ], [ 114.3993433, 30.4782289, 0.0 ], [ 114.3994339, 30.4782579, 0.0 ] ] ] } },
{ "type": "Feature", "properties": { "building_id": "gsr_way_610079680", "use_type": "office", "heated_area_m2": 2300.97, "archetype_id": "provisional_v0_from_delivery_use_type", "terminal_type": "fan_coil", "ventilation_system": "dedicated_fresh_air", "fresh_air_load_included": true, "data_version": "guanggu-real-loads-synthetic-v0-2021-01-08" }, "geometry": { "type": "Polygon", "coordinates": [ [ [ 114.4005, 30.47836, 0.0 ], [ 114.4005, 30.47817, 0.0 ], [ 114.4001, 30.4782, 0.0 ], [ 114.4001, 30.47837, 0.0 ], [ 114.4005, 30.47836, 0.0 ] ] ] } },
{ "type": "Feature", "properties": { "building_id": "gsr_way_610079681", "use_type": "office", "heated_area_m2": 2604.6, "archetype_id": "provisional_v0_from_delivery_use_type", "terminal_type": "fan_coil", "ventilation_system": "dedicated_fresh_air", "fresh_air_load_included": true, "data_version": "guanggu-real-loads-synthetic-v0-2021-01-08" }, "geometry": { "type": "Polygon", "coordinates": [ [ [ 114.4011, 30.47797, 0.0 ], [ 114.4007, 30.4781, 0.0 ], [ 114.4008, 30.47826, 0.0 ], [ 114.4012, 30.47816, 0.0 ], [ 114.4011, 30.47797, 0.0 ] ] ] } },
{ "type": "Feature", "properties": { "building_id": "gsr_way_610079682", "use_type": "office", "heated_area_m2": 1691.79, "archetype_id": "provisional_v0_from_delivery_use_type", "terminal_type": "fan_coil", "ventilation_system": "dedicated_fresh_air", "fresh_air_load_included": true, "data_version": "guanggu-real-loads-synthetic-v0-2021-01-08" }, "geometry": { "type": "Polygon", "coordinates": [ [ [ 114.400422500000019, 30.4777386, 0.0 ], [ 114.400510900000015, 30.477601, 0.0 ], [ 114.4006935, 30.477688199999989, 0.0 ], [ 114.4009058, 30.4777335, 0.0 ], [ 114.4008576, 30.4778876, 0.0 ], [ 114.4007658, 30.477868, 0.0 ], [ 114.4007893, 30.4777944, 0.0 ], [ 114.40064550000001, 30.4777725, 0.0 ], [ 114.400543, 30.4777262, 0.0 ], [ 114.4005095, 30.4777782, 0.0 ], [ 114.400422500000019, 30.4777386, 0.0 ] ] ] } },
{ "type": "Feature", "properties": { "building_id": "gsr_way_610079683", "use_type": "office", "heated_area_m2": 1798.08, "archetype_id": "provisional_v0_from_delivery_use_type", "terminal_type": "fan_coil", "ventilation_system": "dedicated_fresh_air", "fresh_air_load_included": true, "data_version": "guanggu-real-loads-synthetic-v0-2021-01-08" }, "geometry": { "type": "Polygon", "coordinates": [ [ [ 114.3997292, 30.4778, 0.0 ], [ 114.3997372, 30.4776387, 0.0 ], [ 114.3998445, 30.477645, 0.0 ], [ 114.399962, 30.477636, 0.0 ], [ 114.4001562, 30.4775873, 0.0 ], [ 114.400203500000018, 30.4777588, 0.0 ], [ 114.4001, 30.4777763, 0.0 ], [ 114.4000848, 30.4777092, 0.0 ], [ 114.399932, 30.4777335, 0.0 ], [ 114.3998313, 30.4777348, 0.0 ], [ 114.3998278, 30.4778062, 0.0 ], [ 114.3997292, 30.4778, 0.0 ] ] ] } },
{ "type": "Feature", "properties": { "building_id": "gsr_way_610079684", "use_type": "office", "heated_area_m2": 1827.9, "archetype_id": "provisional_v0_from_delivery_use_type", "terminal_type": "fan_coil", "ventilation_system": "dedicated_fresh_air", "fresh_air_load_included": true, "data_version": "guanggu-real-loads-synthetic-v0-2021-01-08" }, "geometry": { "type": "Polygon", "coordinates": [ [ [ 114.3990107, 30.4778993, 0.0 ], [ 114.3990218, 30.477716, 0.0 ], [ 114.3992424, 30.4777259, 0.0 ], [ 114.3994274, 30.4776819, 0.0 ], [ 114.39947690000001, 30.4778365, 0.0 ], [ 114.399386100000015, 30.477858, 0.0 ], [ 114.3993677, 30.477800499999987, 0.0 ], [ 114.3992435, 30.47783, 0.0 ], [ 114.3991078, 30.4778239, 0.0 ], [ 114.399103, 30.4779035, 0.0 ], [ 114.3990107, 30.4778993, 0.0 ] ] ] } },
{ "type": "Feature", "properties": { "building_id": "gsr_way_610079685", "use_type": "office", "heated_area_m2": 827.49, "archetype_id": "provisional_v0_from_delivery_use_type", "terminal_type": "fan_coil", "ventilation_system": "dedicated_fresh_air", "fresh_air_load_included": true, "data_version": "guanggu-real-loads-synthetic-v0-2021-01-08" }, "geometry": { "type": "Polygon", "coordinates": [ [ [ 114.3982319, 30.4779543, 0.0 ], [ 114.3981644, 30.4777613, 0.0 ], [ 114.3983479, 30.4777137, 0.0 ], [ 114.398377, 30.4777969, 0.0 ], [ 114.3982707, 30.4778245, 0.0 ], [ 114.398309, 30.4779343, 0.0 ], [ 114.3982319, 30.4779543, 0.0 ] ] ] } },
{ "type": "Feature", "properties": { "building_id": "gsr_way_610079686", "use_type": "office", "heated_area_m2": 1086.57, "archetype_id": "provisional_v0_from_delivery_use_type", "terminal_type": "fan_coil", "ventilation_system": "dedicated_fresh_air", "fresh_air_load_included": true, "data_version": "guanggu-real-loads-synthetic-v0-2021-01-08" }, "geometry": { "type": "Polygon", "coordinates": [ [ [ 114.3985, 30.47829, 0.0 ], [ 114.3983, 30.47814, 0.0 ], [ 114.3985, 30.47802, 0.0 ], [ 114.3986, 30.47812, 0.0 ], [ 114.3985, 30.47816, 0.0 ], [ 114.3985, 30.47823, 0.0 ], [ 114.3985, 30.47829, 0.0 ] ] ] } },
{ "type": "Feature", "properties": { "building_id": "gsr_way_610079687", "use_type": "office", "heated_area_m2": 1022.67, "archetype_id": "provisional_v0_from_delivery_use_type", "terminal_type": "fan_coil", "ventilation_system": "dedicated_fresh_air", "fresh_air_load_included": true, "data_version": "guanggu-real-loads-synthetic-v0-2021-01-08" }, "geometry": { "type": "Polygon", "coordinates": [ [ [ 114.3987, 30.47854, 0.0 ], [ 114.3985, 30.47837, 0.0 ], [ 114.3987, 30.47828, 0.0 ], [ 114.3988, 30.47833, 0.0 ], [ 114.3987, 30.4784, 0.0 ], [ 114.3987, 30.47847, 0.0 ], [ 114.3987, 30.47854, 0.0 ] ] ] } },
{ "type": "Feature", "properties": { "building_id": "gsr_way_610079688", "use_type": "commercial", "heated_area_m2": 1118.52, "archetype_id": "provisional_v0_from_delivery_use_type", "terminal_type": "fan_coil", "ventilation_system": "dedicated_fresh_air", "fresh_air_load_included": true, "data_version": "guanggu-real-loads-synthetic-v0-2021-01-08" }, "geometry": { "type": "Polygon", "coordinates": [ [ [ 114.399, 30.47857, 0.0 ], [ 114.3991, 30.4787, 0.0 ], [ 114.3989, 30.47879, 0.0 ], [ 114.3988, 30.47866, 0.0 ], [ 114.399, 30.47857, 0.0 ] ] ] } },
{ "type": "Feature", "properties": { "building_id": "gsr_way_610079689", "use_type": "office", "heated_area_m2": 875.08, "archetype_id": "provisional_v0_from_delivery_use_type", "terminal_type": "fan_coil", "ventilation_system": "dedicated_fresh_air", "fresh_air_load_included": true, "data_version": "guanggu-real-loads-synthetic-v0-2021-01-08" }, "geometry": { "type": "Polygon", "coordinates": [ [ [ 114.3992238, 30.4786917, 0.0 ], [ 114.3992513, 30.4785642, 0.0 ], [ 114.3993366, 30.4785779, 0.0 ], [ 114.3993263, 30.4786258, 0.0 ], [ 114.399439, 30.4786439, 0.0 ], [ 114.3994218, 30.4787235, 0.0 ], [ 114.3992238, 30.4786917, 0.0 ] ] ] } },
{ "type": "Feature", "properties": { "building_id": "gsr_way_610079690", "use_type": "commercial", "heated_area_m2": 958.74, "archetype_id": "provisional_v0_from_delivery_use_type", "terminal_type": "fan_coil", "ventilation_system": "dedicated_fresh_air", "fresh_air_load_included": true, "data_version": "guanggu-real-loads-synthetic-v0-2021-01-08" }, "geometry": { "type": "Polygon", "coordinates": [ [ [ 114.399, 30.47826, 0.0 ], [ 114.3991, 30.47826, 0.0 ], [ 114.3991, 30.47831, 0.0 ], [ 114.3992, 30.47834, 0.0 ], [ 114.3992, 30.47843, 0.0 ], [ 114.3989, 30.47837, 0.0 ], [ 114.399, 30.47826, 0.0 ] ] ] } },
{ "type": "Feature", "properties": { "building_id": "gsr_way_610079691", "use_type": "commercial", "heated_area_m2": 635.61, "archetype_id": "provisional_v0_from_delivery_use_type", "terminal_type": "fan_coil", "ventilation_system": "dedicated_fresh_air", "fresh_air_load_included": true, "data_version": "guanggu-real-loads-synthetic-v0-2021-01-08" }, "geometry": { "type": "Polygon", "coordinates": [ [ [ 114.3987305, 30.4781234, 0.0 ], [ 114.3987558, 30.477998, 0.0 ], [ 114.3988434, 30.4780112, 0.0 ], [ 114.3988324, 30.4780656, 0.0 ], [ 114.398949700000017, 30.4780831, 0.0 ], [ 114.3989354, 30.4781541, 0.0 ], [ 114.3987305, 30.4781234, 0.0 ] ] ] } },
{ "type": "Feature", "properties": { "building_id": "gsr_way_610079692", "use_type": "commercial", "heated_area_m2": 639.48, "archetype_id": "provisional_v0_from_delivery_use_type", "terminal_type": "fan_coil", "ventilation_system": "dedicated_fresh_air", "fresh_air_load_included": true, "data_version": "guanggu-real-loads-synthetic-v0-2021-01-08" }, "geometry": { "type": "Polygon", "coordinates": [ [ [ 114.3984919, 30.4778208, 0.0 ], [ 114.398520500000018, 30.4776978, 0.0 ], [ 114.398607700000014, 30.4777129, 0.0 ], [ 114.3985962, 30.4777622, 0.0 ], [ 114.3987117, 30.4777822, 0.0 ], [ 114.3986946, 30.4778559, 0.0 ], [ 114.3984919, 30.4778208, 0.0 ] ] ] } },
{ "type": "Feature", "properties": { "building_id": "gsr_way_610079694", "use_type": "mixed_education_office", "heated_area_m2": 19763.1, "archetype_id": "provisional_v0_from_delivery_use_type", "terminal_type": "fan_coil", "ventilation_system": "dedicated_fresh_air", "fresh_air_load_included": true, "data_version": "guanggu-real-loads-synthetic-v0-2021-01-08" }, "geometry": { "type": "Polygon", "coordinates": [ [ [ 114.39738730000002, 30.4778534, 0.0 ], [ 114.3972965, 30.4776183, 0.0 ], [ 114.3975627, 30.4775395, 0.0 ], [ 114.3975827, 30.4775877, 0.0 ], [ 114.3976987, 30.4775515, 0.0 ], [ 114.3977084, 30.4775728, 0.0 ], [ 114.3978135, 30.4775353, 0.0 ], [ 114.3979313, 30.4778201, 0.0 ], [ 114.3978606, 30.4778385, 0.0 ], [ 114.397895600000012, 30.4778889, 0.0 ], [ 114.3979388, 30.4779654, 0.0 ], [ 114.3979866, 30.47806730000001, 0.0 ], [ 114.398021, 30.4781657, 0.0 ], [ 114.3980531, 30.4783126, 0.0 ], [ 114.3980309, 30.4783177, 0.0 ], [ 114.3981614, 30.478492, 0.0 ], [ 114.3981466, 30.4785028, 0.0 ], [ 114.3984251, 30.4786462, 0.0 ], [ 114.3983953, 30.4786823, 0.0 ], [ 114.3984581, 30.4787237, 0.0 ], [ 114.398373400000011, 30.4788415, 0.0 ], [ 114.3980915, 30.4786895, 0.0 ], [ 114.3980299, 30.4787082, 0.0 ], [ 114.39805680000002, 30.4787915, 0.0 ], [ 114.3978011, 30.4788719, 0.0 ], [ 114.3977049, 30.4786266, 0.0 ], [ 114.3978461, 30.4785836, 0.0 ], [ 114.3978049, 30.4784877, 0.0 ], [ 114.3976621, 30.478538, 0.0 ], [ 114.3975688, 30.4782893, 0.0 ], [ 114.3977113, 30.4782485, 0.0 ], [ 114.3976708, 30.4781478, 0.0 ], [ 114.3975265, 30.4781964, 0.0 ], [ 114.3974204, 30.4779453, 0.0 ], [ 114.3975641, 30.4779079, 0.0 ], [ 114.3975288, 30.477810300000012, 0.0 ], [ 114.39738730000002, 30.4778534, 0.0 ] ] ] } },
{ "type": "Feature", "properties": { "building_id": "gsr_way_610079702", "use_type": "office", "heated_area_m2": 8336.88, "archetype_id": "provisional_v0_from_delivery_use_type", "terminal_type": "fan_coil", "ventilation_system": "dedicated_fresh_air", "fresh_air_load_included": true, "data_version": "guanggu-real-loads-synthetic-v0-2021-01-08" }, "geometry": { "type": "Polygon", "coordinates": [ [ [ 114.398706, 30.4771779, 0.0 ], [ 114.3987018, 30.4771576, 0.0 ], [ 114.3987012, 30.4771388, 0.0 ], [ 114.3987084, 30.4771185, 0.0 ], [ 114.3987205, 30.4770999, 0.0 ], [ 114.3987413, 30.4770867, 0.0 ], [ 114.3987625, 30.4770779, 0.0 ], [ 114.3987873, 30.4770731, 0.0 ], [ 114.3988169, 30.4770736, 0.0 ], [ 114.3988404, 30.4770853, 0.0 ], [ 114.3988547, 30.4771059, 0.0 ], [ 114.3988811, 30.4770976, 0.0 ], [ 114.3989135, 30.47715, 0.0 ], [ 114.3989453, 30.4771854, 0.0 ], [ 114.398976600000012, 30.4772126, 0.0 ], [ 114.3990178, 30.4772449, 0.0 ], [ 114.399053, 30.477266900000011, 0.0 ], [ 114.3990937, 30.4772898, 0.0 ], [ 114.3991428, 30.4773104, 0.0 ], [ 114.3991975, 30.4773272, 0.0 ], [ 114.3992475, 30.4773396, 0.0 ], [ 114.3993053, 30.4773468, 0.0 ], [ 114.3993613, 30.4773477, 0.0 ], [ 114.3994111, 30.4773433, 0.0 ], [ 114.399471300000016, 30.4773357, 0.0 ], [ 114.399538400000012, 30.4773213, 0.0 ], [ 114.399622, 30.4775, 0.0 ], [ 114.399538400000012, 30.4775223, 0.0 ], [ 114.3994629, 30.4775383, 0.0 ], [ 114.3993718, 30.4775467, 0.0 ], [ 114.3992852, 30.4775461, 0.0 ], [ 114.3992037, 30.4775395, 0.0 ], [ 114.3991186, 30.4775189, 0.0 ], [ 114.3990448, 30.4774934, 0.0 ], [ 114.3989803, 30.4774626, 0.0 ], [ 114.3989161, 30.4774289, 0.0 ], [ 114.3988581, 30.477389, 0.0 ], [ 114.3988106, 30.4773476, 0.0 ], [ 114.3987665, 30.4773061, 0.0 ], [ 114.3987173, 30.4772503, 0.0 ], [ 114.3986824, 30.4771878, 0.0 ], [ 114.398706, 30.4771779, 0.0 ] ] ] } },
{ "type": "Feature", "properties": { "building_id": "gsr_way_610079705", "use_type": "commercial", "heated_area_m2": 54387.96, "archetype_id": "provisional_v0_from_delivery_use_type", "terminal_type": "fan_coil", "ventilation_system": "dedicated_fresh_air", "fresh_air_load_included": true, "data_version": "guanggu-real-loads-synthetic-v0-2021-01-08" }, "geometry": { "type": "Polygon", "coordinates": [ [ [ 114.3993134, 30.4762525, 0.0 ], [ 114.3995509, 30.4762581, 0.0 ], [ 114.3995692, 30.4762258, 0.0 ], [ 114.3995923, 30.476206699999988, 0.0 ], [ 114.39962, 30.476197, 0.0 ], [ 114.399650900000012, 30.476193, 0.0 ], [ 114.3996829, 30.4762001, 0.0 ], [ 114.399711600000018, 30.4762145, 0.0 ], [ 114.3997296, 30.4762346, 0.0 ], [ 114.3997416, 30.4762625, 0.0 ], [ 114.399825, 30.4762645, 0.0 ], [ 114.3998259, 30.4762355, 0.0 ], [ 114.4000752, 30.4762413, 0.0 ], [ 114.4000601, 30.4767234, 0.0 ], [ 114.399798800000013, 30.4767173, 0.0 ], [ 114.3998069, 30.4764582, 0.0 ], [ 114.3993073, 30.476446599999985, 0.0 ], [ 114.3993134, 30.4762525, 0.0 ] ] ] } },
{ "type": "Feature", "properties": { "building_id": "gsr_way_610079706", "use_type": "office", "heated_area_m2": 3630.33, "archetype_id": "provisional_v0_from_delivery_use_type", "terminal_type": "fan_coil", "ventilation_system": "dedicated_fresh_air", "fresh_air_load_included": true, "data_version": "guanggu-real-loads-synthetic-v0-2021-01-08" }, "geometry": { "type": "Polygon", "coordinates": [ [ [ 114.4002456, 30.4773893, 0.0 ], [ 114.400246, 30.4773251, 0.0 ], [ 114.4002604, 30.4773227, 0.0 ], [ 114.4002731, 30.4773144, 0.0 ], [ 114.4002804, 30.477304199999985, 0.0 ], [ 114.400283, 30.4772914, 0.0 ], [ 114.4002817, 30.4772794, 0.0 ], [ 114.4002752, 30.4772686, 0.0 ], [ 114.4002608, 30.4772615, 0.0 ], [ 114.4002464, 30.4772592, 0.0 ], [ 114.4002468, 30.4771933, 0.0 ], [ 114.3999801, 30.4771998, 0.0 ], [ 114.3999801, 30.477216, 0.0 ], [ 114.3999068, 30.4772228, 0.0 ], [ 114.3998013, 30.4772411, 0.0 ], [ 114.3997265, 30.4772548, 0.0 ], [ 114.3996418, 30.4772769, 0.0 ], [ 114.3997245, 30.477464700000013, 0.0 ], [ 114.3997985, 30.4774389, 0.0 ], [ 114.3998707, 30.4774225, 0.0 ], [ 114.3999391, 30.477408, 0.0 ], [ 114.4000088, 30.4774023, 0.0 ], [ 114.4001497, 30.4773933, 0.0 ], [ 114.4002, 30.4773904, 0.0 ], [ 114.4002456, 30.4773893, 0.0 ] ] ] } },
{ "type": "Feature", "properties": { "building_id": "gsr_way_610079707", "use_type": "office", "heated_area_m2": 5253.72, "archetype_id": "provisional_v0_from_delivery_use_type", "terminal_type": "fan_coil", "ventilation_system": "dedicated_fresh_air", "fresh_air_load_included": true, "data_version": "guanggu-real-loads-synthetic-v0-2021-01-08" }, "geometry": { "type": "Polygon", "coordinates": [ [ [ 114.4009512, 30.4775509, 0.0 ], [ 114.4011036, 30.4773929, 0.0 ], [ 114.401, 30.477327800000012, 0.0 ], [ 114.4008946, 30.4772731, 0.0 ], [ 114.4007885, 30.4772344, 0.0 ], [ 114.4007006, 30.4772098, 0.0 ], [ 114.4005615, 30.4771905, 0.0 ], [ 114.4004735, 30.4771902, 0.0 ], [ 114.4004746, 30.477258799999987, 0.0 ], [ 114.4004613, 30.4772594, 0.0 ], [ 114.4004478, 30.4772644, 0.0 ], [ 114.4004381, 30.4772744, 0.0 ], [ 114.4004332, 30.4772897, 0.0 ], [ 114.4004341, 30.4773047, 0.0 ], [ 114.4004419, 30.4773167, 0.0 ], [ 114.4004587, 30.4773252, 0.0 ], [ 114.4004756, 30.4773273, 0.0 ], [ 114.4004765, 30.4773889, 0.0 ], [ 114.40055270000002, 30.4773922, 0.0 ], [ 114.4006516, 30.4774099, 0.0 ], [ 114.4007219, 30.4774252, 0.0 ], [ 114.4007815, 30.4774455, 0.0 ], [ 114.4008367, 30.477471599999987, 0.0 ], [ 114.4008985, 30.4775083, 0.0 ], [ 114.4009512, 30.4775509, 0.0 ] ] ] } },
{ "type": "Feature", "properties": { "building_id": "gsr_way_610079708", "use_type": "office", "heated_area_m2": 8616.96, "archetype_id": "provisional_v0_from_delivery_use_type", "terminal_type": "fan_coil", "ventilation_system": "dedicated_fresh_air", "fresh_air_load_included": true, "data_version": "guanggu-real-loads-synthetic-v0-2021-01-08" }, "geometry": { "type": "Polygon", "coordinates": [ [ [ 114.401182, 30.4774528, 0.0 ], [ 114.4012456, 30.4774944, 0.0 ], [ 114.4013689, 30.4775617, 0.0 ], [ 114.4014859, 30.4776178, 0.0 ], [ 114.401696, 30.4776796, 0.0 ], [ 114.4018477, 30.4776961, 0.0 ], [ 114.4019993, 30.4777014, 0.0 ], [ 114.4019997, 30.4777226, 0.0 ], [ 114.4020205, 30.477725299999978, 0.0 ], [ 114.4020392, 30.4777315, 0.0 ], [ 114.4020586, 30.477745, 0.0 ], [ 114.402072100000012, 30.4777607, 0.0 ], [ 114.4020792, 30.4777875, 0.0 ], [ 114.4020775, 30.477811, 0.0 ], [ 114.4020696, 30.4778336, 0.0 ], [ 114.4020526, 30.4778507, 0.0 ], [ 114.4020278, 30.4778657, 0.0 ], [ 114.402002, 30.4778717, 0.0 ], [ 114.4020024, 30.4778927, 0.0 ], [ 114.4018242, 30.4778893, 0.0 ], [ 114.4016879, 30.4778744, 0.0 ], [ 114.4015646, 30.4778572, 0.0 ], [ 114.401463300000017, 30.477828, 0.0 ], [ 114.401386, 30.4777985, 0.0 ], [ 114.4012427, 30.477737, 0.0 ], [ 114.4011092, 30.4776583, 0.0 ], [ 114.4010335, 30.4776028, 0.0 ], [ 114.401182, 30.4774528, 0.0 ] ] ] } },
{ "type": "Feature", "properties": { "building_id": "gsr_way_610079709", "use_type": "office", "heated_area_m2": 11878.36, "archetype_id": "provisional_v0_from_delivery_use_type", "terminal_type": "fan_coil", "ventilation_system": "dedicated_fresh_air", "fresh_air_load_included": true, "data_version": "guanggu-real-loads-synthetic-v0-2021-01-08" }, "geometry": { "type": "Polygon", "coordinates": [ [ [ 114.4024819, 30.4792259, 0.0 ], [ 114.4024417, 30.4788833, 0.0 ], [ 114.4032427, 30.478808, 0.0 ], [ 114.403271, 30.4791606, 0.0 ], [ 114.4024819, 30.4792259, 0.0 ] ] ] } },
{ "type": "Feature", "properties": { "building_id": "gsr_way_610079710", "use_type": "exhibition", "heated_area_m2": 30837.84, "archetype_id": "provisional_v0_from_delivery_use_type", "terminal_type": "fan_coil", "ventilation_system": "dedicated_fresh_air", "fresh_air_load_included": true, "data_version": "guanggu-real-loads-synthetic-v0-2021-01-08" }, "geometry": { "type": "Polygon", "coordinates": [ [ [ 114.4023145, 30.4788953, 0.0 ], [ 114.4022494, 30.478381599999985, 0.0 ], [ 114.4023701, 30.4783703, 0.0 ], [ 114.4031316, 30.4782986, 0.0 ], [ 114.4031776, 30.4782942, 0.0 ], [ 114.4032427, 30.478808, 0.0 ], [ 114.4024417, 30.4788833, 0.0 ], [ 114.4023145, 30.4788953, 0.0 ] ] ] } },
{ "type": "Feature", "properties": { "building_id": "gsr_way_610079713", "use_type": "office", "heated_area_m2": 80071.74, "archetype_id": "provisional_v0_from_delivery_use_type", "terminal_type": "fan_coil", "ventilation_system": "dedicated_fresh_air", "fresh_air_load_included": true, "data_version": "guanggu-real-loads-synthetic-v0-2021-01-08" }, "geometry": { "type": "Polygon", "coordinates": [ [ [ 114.4023465, 30.4776239, 0.0 ], [ 114.4023073, 30.4773093, 0.0 ], [ 114.4030957, 30.477238799999984, 0.0 ], [ 114.403126, 30.4775055, 0.0 ], [ 114.4031268, 30.4775303, 0.0 ], [ 114.4031232, 30.4775515, 0.0 ], [ 114.403112100000016, 30.4775731, 0.0 ], [ 114.403095, 30.4775924, 0.0 ], [ 114.4030725, 30.477609600000012, 0.0 ], [ 114.4030542, 30.477618, 0.0 ], [ 114.4030306, 30.4776221, 0.0 ], [ 114.4029854, 30.4776262, 0.0 ], [ 114.4029879, 30.4776447, 0.0 ], [ 114.4027101, 30.4776683, 0.0 ], [ 114.4027017, 30.4775924, 0.0 ], [ 114.4023465, 30.4776239, 0.0 ] ] ] } },
{ "type": "Feature", "properties": { "building_id": "gsr_way_610079714", "use_type": "office", "heated_area_m2": 22530.0, "archetype_id": "provisional_v0_from_delivery_use_type", "terminal_type": "fan_coil", "ventilation_system": "dedicated_fresh_air", "fresh_air_load_included": true, "data_version": "guanggu-real-loads-synthetic-v0-2021-01-08" }, "geometry": { "type": "Polygon", "coordinates": [ [ [ 114.402727, 30.4771128, 0.0 ], [ 114.4026812, 30.4767301, 0.0 ], [ 114.403045800000015, 30.4766977, 0.0 ], [ 114.4030915, 30.4770804, 0.0 ], [ 114.402727, 30.4771128, 0.0 ] ] ] } },
{ "type": "Feature", "properties": { "building_id": "gsr_way_610079715", "use_type": "office", "heated_area_m2": 25372.4, "archetype_id": "provisional_v0_from_delivery_use_type", "terminal_type": "fan_coil", "ventilation_system": "dedicated_fresh_air", "fresh_air_load_included": true, "data_version": "guanggu-real-loads-synthetic-v0-2021-01-08" }, "geometry": { "type": "Polygon", "coordinates": [ [ [ 114.4019245, 30.4769933, 0.0 ], [ 114.401943, 30.4766683, 0.0 ], [ 114.4023086, 30.4766838, 0.0 ], [ 114.4022901, 30.4770087, 0.0 ], [ 114.4019245, 30.4769933, 0.0 ] ] ] } },
{ "type": "Feature", "properties": { "building_id": "gsr_way_610079716", "use_type": "office", "heated_area_m2": 24744.72, "archetype_id": "provisional_v0_from_delivery_use_type", "terminal_type": "fan_coil", "ventilation_system": "dedicated_fresh_air", "fresh_air_load_included": true, "data_version": "guanggu-real-loads-synthetic-v0-2021-01-08" }, "geometry": { "type": "Polygon", "coordinates": [ [ [ 114.4012156, 30.4766644, 0.0 ], [ 114.4015765, 30.4766702, 0.0 ], [ 114.4015701, 30.4769627, 0.0 ], [ 114.4012092, 30.4769568, 0.0 ], [ 114.4012156, 30.4766644, 0.0 ] ] ] } },
{ "type": "Feature", "properties": { "building_id": "gsr_way_610079717", "use_type": "office", "heated_area_m2": 26933.28, "archetype_id": "provisional_v0_from_delivery_use_type", "terminal_type": "fan_coil", "ventilation_system": "dedicated_fresh_air", "fresh_air_load_included": true, "data_version": "guanggu-real-loads-synthetic-v0-2021-01-08" }, "geometry": { "type": "Polygon", "coordinates": [ [ [ 114.4005249, 30.4769322, 0.0 ], [ 114.4005331, 30.4766224, 0.0 ], [ 114.4009038, 30.4766296, 0.0 ], [ 114.4008956, 30.4769395, 0.0 ], [ 114.4005249, 30.4769322, 0.0 ] ] ] } },
{ "type": "Feature", "properties": { "building_id": "gsr_way_610079718", "use_type": "commercial", "heated_area_m2": 431.06, "archetype_id": "provisional_v0_from_delivery_use_type", "terminal_type": "fan_coil", "ventilation_system": "dedicated_fresh_air", "fresh_air_load_included": true, "data_version": "guanggu-real-loads-synthetic-v0-2021-01-08" }, "geometry": { "type": "Polygon", "coordinates": [ [ [ 114.4007156, 30.4764909, 0.0 ], [ 114.4008925, 30.476493, 0.0 ], [ 114.400897900000018, 30.476261, 0.0 ], [ 114.4007304, 30.4762535, 0.0 ], [ 114.4007156, 30.4764909, 0.0 ] ] ] } },
{ "type": "Feature", "properties": { "building_id": "gsr_way_610079719", "use_type": "office", "heated_area_m2": 6329.89, "archetype_id": "provisional_v0_from_delivery_use_type", "terminal_type": "fan_coil", "ventilation_system": "dedicated_fresh_air", "fresh_air_load_included": true, "data_version": "guanggu-real-loads-synthetic-v0-2021-01-08" }, "geometry": { "type": "Polygon", "coordinates": [ [ [ 114.4009775, 30.4764951, 0.0 ], [ 114.401259, 30.4765036, 0.0 ], [ 114.401265, 30.4763624, 0.0 ], [ 114.4012682, 30.4762751, 0.0 ], [ 114.400897900000018, 30.476261, 0.0 ], [ 114.4008925, 30.476493, 0.0 ], [ 114.4009775, 30.4764951, 0.0 ] ] ] } },
{ "type": "Feature", "properties": { "building_id": "gsr_way_610079720", "use_type": "commercial", "heated_area_m2": 317.95, "archetype_id": "provisional_v0_from_delivery_use_type", "terminal_type": "fan_coil", "ventilation_system": "dedicated_fresh_air", "fresh_air_load_included": true, "data_version": "guanggu-real-loads-synthetic-v0-2021-01-08" }, "geometry": { "type": "Polygon", "coordinates": [ [ [ 114.401265, 30.4763624, 0.0 ], [ 114.4016095, 30.4763711, 0.0 ], [ 114.4016166, 30.4762864, 0.0 ], [ 114.4012682, 30.4762751, 0.0 ], [ 114.401265, 30.4763624, 0.0 ] ] ] } },
{ "type": "Feature", "properties": { "building_id": "gsr_way_610079721", "use_type": "office", "heated_area_m2": 6408.15, "archetype_id": "provisional_v0_from_delivery_use_type", "terminal_type": "fan_coil", "ventilation_system": "dedicated_fresh_air", "fresh_air_load_included": true, "data_version": "guanggu-real-loads-synthetic-v0-2021-01-08" }, "geometry": { "type": "Polygon", "coordinates": [ [ [ 114.4015999, 30.4765253, 0.0 ], [ 114.4016095, 30.4763711, 0.0 ], [ 114.4016166, 30.4762864, 0.0 ], [ 114.4019745, 30.4762996, 0.0 ], [ 114.4019649, 30.4765346, 0.0 ], [ 114.4015999, 30.4765253, 0.0 ] ] ] } },
{ "type": "Feature", "properties": { "building_id": "gsr_way_610182736", "use_type": "commercial", "heated_area_m2": 20328.14, "archetype_id": "provisional_v0_from_delivery_use_type", "terminal_type": "fan_coil", "ventilation_system": "dedicated_fresh_air", "fresh_air_load_included": true, "data_version": "guanggu-real-loads-synthetic-v0-2021-01-08" }, "geometry": { "type": "Polygon", "coordinates": [ [ [ 114.3986827, 30.4766109, 0.0 ], [ 114.3986875, 30.4764735, 0.0 ], [ 114.3992682, 30.4764774, 0.0 ], [ 114.3992682, 30.4764982, 0.0 ], [ 114.399332, 30.4764996, 0.0 ], [ 114.3993276, 30.4766542, 0.0 ], [ 114.3995672, 30.4766988, 0.0 ], [ 114.3995608, 30.4767346, 0.0 ], [ 114.3996526, 30.4767428, 0.0 ], [ 114.399643, 30.4768171, 0.0 ], [ 114.3997568, 30.4768289, 0.0 ], [ 114.3998613, 30.4768341, 0.0 ], [ 114.4000318, 30.4768327, 0.0 ], [ 114.4000265, 30.4769335, 0.0 ], [ 114.3997838, 30.4769282, 0.0 ], [ 114.3996517, 30.4769162, 0.0 ], [ 114.3995056, 30.4768939, 0.0 ], [ 114.3993671, 30.4768651, 0.0 ], [ 114.3992457, 30.4768337, 0.0 ], [ 114.399118, 30.476791699999985, 0.0 ], [ 114.3989879, 30.4767465, 0.0 ], [ 114.3988105, 30.476671, 0.0 ], [ 114.3986827, 30.4766109, 0.0 ] ] ] } },
{ "type": "Feature", "properties": { "building_id": "gsr_way_610187208", "use_type": "commercial", "heated_area_m2": 11553.3, "archetype_id": "provisional_v0_from_delivery_use_type", "terminal_type": "fan_coil", "ventilation_system": "dedicated_fresh_air", "fresh_air_load_included": true, "data_version": "guanggu-real-loads-synthetic-v0-2021-01-08" }, "geometry": { "type": "Polygon", "coordinates": [ [ [ 114.4006776, 30.4816577, 0.0 ], [ 114.4006661, 30.4815669, 0.0 ], [ 114.4007586, 30.4815582, 0.0 ], [ 114.4007393, 30.4814055, 0.0 ], [ 114.4010545, 30.4813759, 0.0 ], [ 114.4010664, 30.4814696, 0.0 ], [ 114.400975, 30.4814782, 0.0 ], [ 114.4009939, 30.4816279, 0.0 ], [ 114.4006776, 30.4816577, 0.0 ] ] ] } },
{ "type": "Feature", "properties": { "building_id": "gsr_way_799097623", "use_type": "mixed_office_financial_service", "heated_area_m2": 26956.05, "archetype_id": "provisional_v0_from_delivery_use_type", "terminal_type": "fan_coil", "ventilation_system": "dedicated_fresh_air", "fresh_air_load_included": true, "data_version": "guanggu-real-loads-synthetic-v0-2021-01-08" }, "geometry": { "type": "Polygon", "coordinates": [ [ [ 114.4017564, 30.4815502, 0.0 ], [ 114.4017182, 30.4812288, 0.0 ], [ 114.402176600000018, 30.4811884, 0.0 ], [ 114.4022147, 30.4815098, 0.0 ], [ 114.4017564, 30.4815502, 0.0 ] ] ] } },
{ "type": "Feature", "properties": { "building_id": "gsr_way_799097624", "use_type": "commercial", "heated_area_m2": 13137.48, "archetype_id": "provisional_v0_from_delivery_use_type", "terminal_type": "fan_coil", "ventilation_system": "dedicated_fresh_air", "fresh_air_load_included": true, "data_version": "guanggu-real-loads-synthetic-v0-2021-01-08" }, "geometry": { "type": "Polygon", "coordinates": [ [ [ 114.3998908, 30.4817302, 0.0 ], [ 114.3998803, 30.4816398, 0.0 ], [ 114.3999725, 30.4816319, 0.0 ], [ 114.3999565, 30.481493, 0.0 ], [ 114.4002694, 30.4814662, 0.0 ], [ 114.4002793, 30.4815513, 0.0 ], [ 114.4001944, 30.4815586, 0.0 ], [ 114.400211, 30.4817027, 0.0 ], [ 114.3998908, 30.4817302, 0.0 ] ] ] } },
{ "type": "Feature", "properties": { "building_id": "gsr_way_799097625", "use_type": "commercial", "heated_area_m2": 11130.0, "archetype_id": "provisional_v0_from_delivery_use_type", "terminal_type": "fan_coil", "ventilation_system": "dedicated_fresh_air", "fresh_air_load_included": true, "data_version": "guanggu-real-loads-synthetic-v0-2021-01-08" }, "geometry": { "type": "Polygon", "coordinates": [ [ [ 114.3991103, 30.4818024, 0.0 ], [ 114.3990986, 30.481712099999985, 0.0 ], [ 114.3991855, 30.4817037, 0.0 ], [ 114.3991672, 30.4815635, 0.0 ], [ 114.3994874, 30.4815326, 0.0 ], [ 114.3994991, 30.4816227, 0.0 ], [ 114.3994075, 30.4816315, 0.0 ], [ 114.3994258, 30.481772, 0.0 ], [ 114.3991103, 30.4818024, 0.0 ] ] ] } },
{ "type": "Feature", "properties": { "building_id": "gsr_way_799097626", "use_type": "commercial", "heated_area_m2": 11023.65, "archetype_id": "provisional_v0_from_delivery_use_type", "terminal_type": "fan_coil", "ventilation_system": "dedicated_fresh_air", "fresh_air_load_included": true, "data_version": "guanggu-real-loads-synthetic-v0-2021-01-08" }, "geometry": { "type": "Polygon", "coordinates": [ [ [ 114.400232800000012, 30.4812466, 0.0 ], [ 114.4002224, 30.4811618, 0.0 ], [ 114.4003145, 30.4811534, 0.0 ], [ 114.400296, 30.4810025, 0.0 ], [ 114.4006143, 30.4809736, 0.0 ], [ 114.4006247, 30.4810587, 0.0 ], [ 114.4005277, 30.4810675, 0.0 ], [ 114.4005461, 30.4812182, 0.0 ], [ 114.400232800000012, 30.4812466, 0.0 ] ] ] } },
{ "type": "Feature", "properties": { "building_id": "gsr_way_799097627", "use_type": "commercial", "heated_area_m2": 11735.25, "archetype_id": "provisional_v0_from_delivery_use_type", "terminal_type": "fan_coil", "ventilation_system": "dedicated_fresh_air", "fresh_air_load_included": true, "data_version": "guanggu-real-loads-synthetic-v0-2021-01-08" }, "geometry": { "type": "Polygon", "coordinates": [ [ [ 114.3994516, 30.4813167, 0.0 ], [ 114.399442, 30.4812257, 0.0 ], [ 114.3995258, 30.4812192, 0.0 ], [ 114.3995095, 30.4810637, 0.0 ], [ 114.3998292, 30.4810388, 0.0 ], [ 114.3998396, 30.4811377, 0.0 ], [ 114.3997476, 30.4811449, 0.0 ], [ 114.3997631, 30.4812924, 0.0 ], [ 114.3994516, 30.4813167, 0.0 ] ] ] } },
{ "type": "Feature", "properties": { "building_id": "gsr_way_799097629", "use_type": "office_R&D", "heated_area_m2": 24691.82, "archetype_id": "provisional_v0_from_delivery_use_type", "terminal_type": "fan_coil", "ventilation_system": "dedicated_fresh_air", "fresh_air_load_included": true, "data_version": "guanggu-real-loads-synthetic-v0-2021-01-08" }, "geometry": { "type": "Polygon", "coordinates": [ [ [ 114.4013299, 30.481059, 0.0 ], [ 114.4012826, 30.4806784, 0.0 ], [ 114.4016368, 30.4806458, 0.0 ], [ 114.4016841, 30.4810264, 0.0 ], [ 114.4013299, 30.481059, 0.0 ] ] ] } },
{ "type": "Feature", "properties": { "building_id": "gsr_way_799097631", "use_type": "exhibition", "heated_area_m2": 12640.6, "archetype_id": "provisional_v0_from_delivery_use_type", "terminal_type": "fan_coil", "ventilation_system": "dedicated_fresh_air", "fresh_air_load_included": true, "data_version": "guanggu-real-loads-synthetic-v0-2021-01-08" }, "geometry": { "type": "Polygon", "coordinates": [ [ [ 114.4023701, 30.4783703, 0.0 ], [ 114.4023421, 30.4780617, 0.0 ], [ 114.4030906, 30.4779853, 0.0 ], [ 114.4031316, 30.4782986, 0.0 ], [ 114.4023701, 30.4783703, 0.0 ] ] ] } },
{ "type": "Feature", "properties": { "building_id": "gsr_way_799278669", "use_type": "office", "heated_area_m2": 58364.8, "archetype_id": "provisional_v0_from_delivery_use_type", "terminal_type": "fan_coil", "ventilation_system": "dedicated_fresh_air", "fresh_air_load_included": true, "data_version": "guanggu-real-loads-synthetic-v0-2021-01-08" }, "geometry": { "type": "Polygon", "coordinates": [ [ [ 114.4035477, 30.4823342, 0.0 ], [ 114.4040099, 30.4823096, 0.0 ], [ 114.4039471, 30.4817933, 0.0 ], [ 114.4034849, 30.4818277, 0.0 ], [ 114.4035477, 30.4823342, 0.0 ] ] ] } }
]
}
