{
"type": "FeatureCollection",
"name": "candidate_network",
"crs": { "type": "name", "properties": { "name": "urn:ogc:def:crs:OGC:1.3:CRS84" } },
"features": [
{ "type": "Feature", "properties": { "segment_id": "synthetic_v0_edge_1", "node_from": "synthetic_v0_station", "node_to": "gsr_way_1230866324", "length_m": 243.44295158063991, "data_version": "synthetic_v0", "data_classification": "synthetic_v0_not_real_road" }, "geometry": { "type": "LineString", "coordinates": [ [ 114.39928650313233, 30.47879404584009 ], [ 114.396937859916676, 30.479618979593258 ] ] } },
{ "type": "Feature", "properties": { "segment_id": "synthetic_v0_edge_2", "node_from": "synthetic_v0_station", "node_to": "gsr_way_1241369277", "length_m": 286.50547671573463, "data_version": "synthetic_v0", "data_classification": "synthetic_v0_not_real_road" }, "geometry": { "type": "LineString", "coordinates": [ [ 114.39928650313233, 30.47879404584009 ], [ 114.397831499989039, 30.481049249990981 ] ] } },
{ "type": "Feature", "properties": { "segment_id": "synthetic_v0_edge_3", "node_from": "synthetic_v0_station", "node_to": "gsr_way_1314562851", "length_m": 284.85190292544644, "data_version": "synthetic_v0", "data_classification": "synthetic_v0_not_real_road" }, "geometry": { "type": "LineString", "coordinates": [ [ 114.39928650313233, 30.47879404584009 ], [ 114.401060863906011, 30.476736042451908 ] ] } },
{ "type": "Feature", "properties": { "segment_id": "synthetic_v0_edge_4", "node_from": "synthetic_v0_station", "node_to": "gsr_way_1314562852", "length_m": 328.53013236321812, "data_version": "synthetic_v0", "data_classification": "synthetic_v0_not_real_road" }, "geometry": { "type": "LineString", "coordinates": [ [ 114.39928650313233, 30.47879404584009 ], [ 114.401778420756614, 30.476764976096561 ] ] } },
{ "type": "Feature", "properties": { "segment_id": "synthetic_v0_edge_5", "node_from": "synthetic_v0_station", "node_to": "gsr_way_1347774898", "length_m": 284.22637646892179, "data_version": "synthetic_v0", "data_classification": "synthetic_v0_not_real_road" }, "geometry": { "type": "LineString", "coordinates": [ [ 114.39928650313233, 30.47879404584009 ], [ 114.397748790219381, 30.476604429007942 ] ] } },
{ "type": "Feature", "properties": { "segment_id": "synthetic_v0_edge_6", "node_from": "synthetic_v0_station", "node_to": "gsr_way_1347774909", "length_m": 443.62274415189336, "data_version": "synthetic_v0", "data_classification": "synthetic_v0_not_real_road" }, "geometry": { "type": "LineString", "coordinates": [ [ 114.39928650313233, 30.47879404584009 ], [ 114.403104554089921, 30.481044758605488 ] ] } },
{ "type": "Feature", "properties": { "segment_id": "synthetic_v0_edge_7", "node_from": "synthetic_v0_station", "node_to": "gsr_way_610079646", "length_m": 239.42112917975993, "data_version": "synthetic_v0", "data_classification": "synthetic_v0_not_real_road" }, "geometry": { "type": "LineString", "coordinates": [ [ 114.39928650313233, 30.47879404584009 ], [ 114.401712605062571, 30.479289190279253 ] ] } },
{ "type": "Feature", "properties": { "segment_id": "synthetic_v0_edge_8", "node_from": "synthetic_v0_station", "node_to": "gsr_way_610079650", "length_m": 234.06703601538584, "data_version": "synthetic_v0", "data_classification": "synthetic_v0_not_real_road" }, "geometry": { "type": "LineString", "coordinates": [ [ 114.39928650313233, 30.47879404584009 ], [ 114.401265960870759, 30.480024983891109 ] ] } },
{ "type": "Feature", "properties": { "segment_id": "synthetic_v0_edge_9", "node_from": "synthetic_v0_station", "node_to": "gsr_way_610079651", "length_m": 190.58319804442567, "data_version": "synthetic_v0", "data_classification": "synthetic_v0_not_real_road" }, "geometry": { "type": "LineString", "coordinates": [ [ 114.39928650313233, 30.47879404584009 ], [ 114.400465399985066, 30.480176300040497 ] ] } },
{ "type": "Feature", "properties": { "segment_id": "synthetic_v0_edge_10", "node_from": "synthetic_v0_station", "node_to": "gsr_way_610079652", "length_m": 217.22030067836783, "data_version": "synthetic_v0", "data_classification": "synthetic_v0_not_real_road" }, "geometry": { "type": "LineString", "coordinates": [ [ 114.39928650313233, 30.47879404584009 ], [ 114.400467938794193, 30.480464178643839 ] ] } },
{ "type": "Feature", "properties": { "segment_id": "synthetic_v0_edge_11", "node_from": "synthetic_v0_station", "node_to": "gsr_way_610079653", "length_m": 252.93602811785496, "data_version": "synthetic_v0", "data_classification": "synthetic_v0_not_real_road" }, "geometry": { "type": "LineString", "coordinates": [ [ 114.39928650313233, 30.47879404584009 ], [ 114.401093475685371, 30.480453053482702 ] ] } },
{ "type": "Feature", "properties": { "segment_id": "synthetic_v0_edge_12", "node_from": "synthetic_v0_station", "node_to": "gsr_way_610079654", "length_m": 252.78032262010944, "data_version": "synthetic_v0", "data_classification": "synthetic_v0_not_real_road" }, "geometry": { "type": "LineString", "coordinates": [ [ 114.39928650313233, 30.47879404584009 ], [ 114.400809839591659, 30.480652678103052 ] ] } },
{ "type": "Feature", "properties": { "segment_id": "synthetic_v0_edge_13", "node_from": "synthetic_v0_station", "node_to": "gsr_way_610079655", "length_m": 248.34836493542556, "data_version": "synthetic_v0", "data_classification": "synthetic_v0_not_real_road" }, "geometry": { "type": "LineString", "coordinates": [ [ 114.39928650313233, 30.47879404584009 ], [ 114.400504789332444, 30.480769222810235 ] ] } },
{ "type": "Feature", "properties": { "segment_id": "synthetic_v0_edge_14", "node_from": "synthetic_v0_station", "node_to": "gsr_way_610079656", "length_m": 329.96964235920319, "data_version": "synthetic_v0", "data_classification": "synthetic_v0_not_real_road" }, "geometry": { "type": "LineString", "coordinates": [ [ 114.39928650313233, 30.47879404584009 ], [ 114.40255199828664, 30.479717736073571 ] ] } },
{ "type": "Feature", "properties": { "segment_id": "synthetic_v0_edge_15", "node_from": "synthetic_v0_station", "node_to": "gsr_way_610079657", "length_m": 403.61461797815474, "data_version": "synthetic_v0", "data_classification": "synthetic_v0_not_real_road" }, "geometry": { "type": "LineString", "coordinates": [ [ 114.39928650313233, 30.47879404584009 ], [ 114.403251040313449, 30.480000014661695 ] ] } },
{ "type": "Feature", "properties": { "segment_id": "synthetic_v0_edge_16", "node_from": "synthetic_v0_station", "node_to": "gsr_way_610079669", "length_m": 314.16675353989228, "data_version": "synthetic_v0", "data_classification": "synthetic_v0_not_real_road" }, "geometry": { "type": "LineString", "coordinates": [ [ 114.39928650313233, 30.47879404584009 ], [ 114.398311690648612, 30.481498146525634 ] ] } },
{ "type": "Feature", "properties": { "segment_id": "synthetic_v0_edge_17", "node_from": "synthetic_v0_station", "node_to": "gsr_way_610079671", "length_m": 236.78627691214669, "data_version": "synthetic_v0", "data_classification": "synthetic_v0_not_real_road" }, "geometry": { "type": "LineString", "coordinates": [ [ 114.39928650313233, 30.47879404584009 ], [ 114.397958599991398, 30.480592900119778 ] ] } },
{ "type": "Feature", "properties": { "segment_id": "synthetic_v0_edge_18", "node_from": "synthetic_v0_station", "node_to": "gsr_way_610079672", "length_m": 185.85505719587451, "data_version": "synthetic_v0", "data_classification": "synthetic_v0_not_real_road" }, "geometry": { "type": "LineString", "coordinates": [ [ 114.39928650313233, 30.47879404584009 ], [ 114.397903165834805, 30.479965774186589 ] ] } },
{ "type": "Feature", "properties": { "segment_id": "synthetic_v0_edge_19", "node_from": "synthetic_v0_station", "node_to": "gsr_way_610079673", "length_m": 152.50299973922367, "data_version": "synthetic_v0", "data_classification": "synthetic_v0_not_real_road" }, "geometry": { "type": "LineString", "coordinates": [ [ 114.39928650313233, 30.47879404584009 ], [ 114.397860049996069, 30.479397800132322 ] ] } },
{ "type": "Feature", "properties": { "segment_id": "synthetic_v0_edge_20", "node_from": "synthetic_v0_station", "node_to": "gsr_way_610079674", "length_m": 117.07664031933196, "data_version": "synthetic_v0", "data_classification": "synthetic_v0_not_real_road" }, "geometry": { "type": "LineString", "coordinates": [ [ 114.39928650313233, 30.47879404584009 ], [ 114.398389019328022, 30.479508337491882 ] ] } },
{ "type": "Feature", "properties": { "segment_id": "synthetic_v0_edge_21", "node_from": "synthetic_v0_station", "node_to": "gsr_way_610079675", "length_m": 132.73056145768044, "data_version": "synthetic_v0", "data_classification": "synthetic_v0_not_real_road" }, "geometry": { "type": "LineString", "coordinates": [ [ 114.39928650313233, 30.47879404584009 ], [ 114.399389542267059, 30.479987547070106 ] ] } },
{ "type": "Feature", "properties": { "segment_id": "synthetic_v0_edge_22", "node_from": "synthetic_v0_station", "node_to": "gsr_way_610079679", "length_m": 70.212672537230716, "data_version": "synthetic_v0", "data_classification": "synthetic_v0_not_real_road" }, "geometry": { "type": "LineString", "coordinates": [ [ 114.39928650313233, 30.47879404584009 ], [ 114.399590869090119, 30.478218432829404 ] ] } },
{ "type": "Feature", "properties": { "segment_id": "synthetic_v0_edge_23", "node_from": "synthetic_v0_station", "node_to": "gsr_way_610079680", "length_m": 113.41353825297359, "data_version": "synthetic_v0", "data_classification": "synthetic_v0_not_real_road" }, "geometry": { "type": "LineString", "coordinates": [ [ 114.39928650313233, 30.47879404584009 ], [ 114.400303703700814, 30.47827481494317 ] ] } },
{ "type": "Feature", "properties": { "segment_id": "synthetic_v0_edge_24", "node_from": "synthetic_v0_station", "node_to": "gsr_way_610079681", "length_m": 176.78358375635651, "data_version": "synthetic_v0", "data_classification": "synthetic_v0_not_real_road" }, "geometry": { "type": "LineString", "coordinates": [ [ 114.39928650313233, 30.47879404584009 ], [ 114.4009546012919, 30.478120552286491 ] ] } },
{ "type": "Feature", "properties": { "segment_id": "synthetic_v0_edge_25", "node_from": "synthetic_v0_station", "node_to": "gsr_way_610079682", "length_m": 177.5517728711971, "data_version": "synthetic_v0", "data_classification": "synthetic_v0_not_real_road" }, "geometry": { "type": "LineString", "coordinates": [ [ 114.39928650313233, 30.47879404584009 ], [ 114.400674584097459, 30.477736824593574 ] ] } },
{ "type": "Feature", "properties": { "segment_id": "synthetic_v0_edge_26", "node_from": "synthetic_v0_station", "node_to": "gsr_way_610079683", "length_m": 138.19594668199784, "data_version": "synthetic_v0", "data_classification": "synthetic_v0_not_real_road" }, "geometry": { "type": "LineString", "coordinates": [ [ 114.39928650313233, 30.47879404584009 ], [ 114.399961241354873, 30.477693472336636 ] ] } },
{ "type": "Feature", "properties": { "segment_id": "synthetic_v0_edge_27", "node_from": "synthetic_v0_station", "node_to": "gsr_way_610079684", "length_m": 112.31844588354178, "data_version": "synthetic_v0", "data_classification": "synthetic_v0_not_real_road" }, "geometry": { "type": "LineString", "coordinates": [ [ 114.39928650313233, 30.47879404584009 ], [ 114.399227738685724, 30.477782548574556 ] ] } },
{ "type": "Feature", "properties": { "segment_id": "synthetic_v0_edge_28", "node_from": "synthetic_v0_station", "node_to": "gsr_way_610079685", "length_m": 146.14063392252444, "data_version": "synthetic_v0", "data_classification": "synthetic_v0_not_real_road" }, "geometry": { "type": "LineString", "coordinates": [ [ 114.39928650313233, 30.47879404584009 ], [ 114.398263768166444, 30.477818453358392 ] ] } },
{ "type": "Feature", "properties": { "segment_id": "synthetic_v0_edge_29", "node_from": "synthetic_v0_station", "node_to": "gsr_way_610079686", "length_m": 107.99008394441739, "data_version": "synthetic_v0", "data_classification": "synthetic_v0_not_real_road" }, "geometry": { "type": "LineString", "coordinates": [ [ 114.39928650313233, 30.47879404584009 ], [ 114.398453921571189, 30.478139705917098 ] ] } },
{ "type": "Feature", "properties": { "segment_id": "synthetic_v0_edge_30", "node_from": "synthetic_v0_station", "node_to": "gsr_way_610079687", "length_m": 75.942733202004504, "data_version": "synthetic_v0", "data_classification": "synthetic_v0_not_real_road" }, "geometry": { "type": "LineString", "coordinates": [ [ 114.39928650313233, 30.47879404584009 ], [ 114.398652083332323, 30.478385416698909 ] ] } },
{ "type": "Feature", "properties": { "segment_id": "synthetic_v0_edge_31", "node_from": "synthetic_v0_station", "node_to": "gsr_way_610079688", "length_m": 34.709325109504206, "data_version": "synthetic_v0", "data_classification": "synthetic_v0_not_real_road" }, "geometry": { "type": "LineString", "coordinates": [ [ 114.39928650313233, 30.47879404584009 ], [ 114.398950000007304, 30.478680000034601 ] ] } },
{ "type": "Feature", "properties": { "segment_id": "synthetic_v0_edge_32", "node_from": "synthetic_v0_station", "node_to": "gsr_way_610079689", "length_m": 16.042741545949173, "data_version": "synthetic_v0", "data_classification": "synthetic_v0_not_real_road" }, "geometry": { "type": "LineString", "coordinates": [ [ 114.39928650313233, 30.47879404584009 ], [ 114.399322622778882, 30.478652811576502 ] ] } },
{ "type": "Feature", "properties": { "segment_id": "synthetic_v0_edge_33", "node_from": "synthetic_v0_station", "node_to": "gsr_way_610079690", "length_m": 54.1343125622329, "data_version": "synthetic_v0", "data_classification": "synthetic_v0_not_real_road" }, "geometry": { "type": "LineString", "coordinates": [ [ 114.39928650313233, 30.47879404584009 ], [ 114.399063888862301, 30.478345611153316 ] ] } },
{ "type": "Feature", "properties": { "segment_id": "synthetic_v0_edge_34", "node_from": "synthetic_v0_station", "node_to": "gsr_way_610079691", "length_m": 90.032105488025636, "data_version": "synthetic_v0", "data_classification": "synthetic_v0_not_real_road" }, "geometry": { "type": "LineString", "coordinates": [ [ 114.39928650313233, 30.47879404584009 ], [ 114.398828748705526, 30.478085625745742 ] ] } },
{ "type": "Feature", "properties": { "segment_id": "synthetic_v0_edge_35", "node_from": "synthetic_v0_station", "node_to": "gsr_way_610079692", "length_m": 130.2258108801901, "data_version": "synthetic_v0", "data_classification": "synthetic_v0_not_real_road" }, "geometry": { "type": "LineString", "coordinates": [ [ 114.39928650313233, 30.47879404584009 ], [ 114.398592098547155, 30.477785523318953 ] ] } },
{ "type": "Feature", "properties": { "segment_id": "synthetic_v0_edge_36", "node_from": "synthetic_v0_station", "node_to": "gsr_way_610079694", "length_m": 155.53979673213584, "data_version": "synthetic_v0", "data_classification": "synthetic_v0_not_real_road" }, "geometry": { "type": "LineString", "coordinates": [ [ 114.39928650313233, 30.47879404584009 ], [ 114.397818584125659, 30.478201995095976 ] ] } },
{ "type": "Feature", "properties": { "segment_id": "synthetic_v0_edge_37", "node_from": "synthetic_v0_station", "node_to": "gsr_way_610079702", "length_m": 159.93610512827337, "data_version": "synthetic_v0", "data_classification": "synthetic_v0_not_real_road" }, "geometry": { "type": "LineString", "coordinates": [ [ 114.39928650313233, 30.47879404584009 ], [ 114.399121474284627, 30.477359000775706 ] ] } },
{ "type": "Feature", "properties": { "segment_id": "synthetic_v0_edge_38", "node_from": "synthetic_v0_station", "node_to": "gsr_way_610079705", "length_m": 267.54353447689289, "data_version": "synthetic_v0", "data_classification": "synthetic_v0_not_real_road" }, "geometry": { "type": "LineString", "coordinates": [ [ 114.39928650313233, 30.47879404584009 ], [ 114.399767981578918, 30.476417919650494 ] ] } },
{ "type": "Feature", "properties": { "segment_id": "synthetic_v0_edge_39", "node_from": "synthetic_v0_station", "node_to": "gsr_way_610079706", "length_m": 176.66216459279647, "data_version": "synthetic_v0", "data_classification": "synthetic_v0_not_real_road" }, "geometry": { "type": "LineString", "coordinates": [ [ 114.39928650313233, 30.47879404584009 ], [ 114.399967711532625, 30.477314378366351 ] ] } },
{ "type": "Feature", "properties": { "segment_id": "synthetic_v0_edge_40", "node_from": "synthetic_v0_station", "node_to": "gsr_way_610079707", "length_m": 214.06458797220628, "data_version": "synthetic_v0", "data_classification": "synthetic_v0_not_real_road" }, "geometry": { "type": "LineString", "coordinates": [ [ 114.39928650313233, 30.47879404584009 ], [ 114.400759546049102, 30.477345614365426 ] ] } },
{ "type": "Feature", "properties": { "segment_id": "synthetic_v0_edge_41", "node_from": "synthetic_v0_station", "node_to": "gsr_way_610079708", "length_m": 248.20664104532537, "data_version": "synthetic_v0", "data_classification": "synthetic_v0_not_real_road" }, "geometry": { "type": "LineString", "coordinates": [ [ 114.39928650313233, 30.47879404584009 ], [ 114.401551126815264, 30.477716246488416 ] ] } },
{ "type": "Feature", "properties": { "segment_id": "synthetic_v0_edge_42", "node_from": "synthetic_v0_station", "node_to": "gsr_way_610079709", "length_m": 344.24913363233145, "data_version": "synthetic_v0", "data_classification": "synthetic_v0_not_real_road" }, "geometry": { "type": "LineString", "coordinates": [ [ 114.39928650313233, 30.47879404584009 ], [ 114.402860969928341, 30.479018835610869 ] ] } },
{ "type": "Feature", "properties": { "segment_id": "synthetic_v0_edge_43", "node_from": "synthetic_v0_station", "node_to": "gsr_way_610079710", "length_m": 333.04308109458123, "data_version": "synthetic_v0", "data_classification": "synthetic_v0_not_real_road" }, "geometry": { "type": "LineString", "coordinates": [ [ 114.39928650313233, 30.47879404584009 ], [ 114.402746068847605, 30.478594794337845 ] ] } },
{ "type": "Feature", "properties": { "segment_id": "synthetic_v0_edge_44", "node_from": "synthetic_v0_station", "node_to": "gsr_way_610079713", "length_m": 363.47080327661087, "data_version": "synthetic_v0", "data_classification": "synthetic_v0_not_real_road" }, "geometry": { "type": "LineString", "coordinates": [ [ 114.39928650313233, 30.47879404584009 ], [ 114.40273738439474, 30.477449509579721 ] ] } },
{ "type": "Feature", "properties": { "segment_id": "synthetic_v0_edge_45", "node_from": "synthetic_v0_station", "node_to": "gsr_way_610079714", "length_m": 404.28726769874595, "data_version": "synthetic_v0", "data_classification": "synthetic_v0_not_real_road" }, "geometry": { "type": "LineString", "coordinates": [ [ 114.39928650313233, 30.47879404584009 ], [ 114.402886373235702, 30.476905241413167 ] ] } },
{ "type": "Feature", "properties": { "segment_id": "synthetic_v0_edge_46", "node_from": "synthetic_v0_station", "node_to": "gsr_way_610079715", "length_m": 347.75106645633952, "data_version": "synthetic_v0", "data_classification": "synthetic_v0_not_real_road" }, "geometry": { "type": "LineString", "coordinates": [ [ 114.39928650313233, 30.47879404584009 ], [ 114.402116540670619, 30.476838524224725 ] ] } },
{ "type": "Feature", "properties": { "segment_id": "synthetic_v0_edge_47", "node_from": "synthetic_v0_station", "node_to": "gsr_way_610079716", "length_m": 298.62953561196656, "data_version": "synthetic_v0", "data_classification": "synthetic_v0_not_real_road" }, "geometry": { "type": "LineString", "coordinates": [ [ 114.39928650313233, 30.47879404584009 ], [ 114.401392860270306, 30.47681352536792 ] ] } },
{ "type": "Feature", "properties": { "segment_id": "synthetic_v0_edge_48", "node_from": "synthetic_v0_station", "node_to": "gsr_way_610079717", "length_m": 262.02176231566943, "data_version": "synthetic_v0", "data_classification": "synthetic_v0_not_real_road" }, "geometry": { "type": "LineString", "coordinates": [ [ 114.39928650313233, 30.47879404584009 ], [ 114.400714359954151, 30.476780925430873 ] ] } },
{ "type": "Feature", "properties": { "segment_id": "synthetic_v0_edge_49", "node_from": "synthetic_v0_station", "node_to": "gsr_way_610079718", "length_m": 305.47313813621372, "data_version": "synthetic_v0", "data_classification": "synthetic_v0_not_real_road" }, "geometry": { "type": "LineString", "coordinates": [ [ 114.39928650313233, 30.47879404584009 ], [ 114.400808709480714, 30.476375630347647 ] ] } },
{ "type": "Feature", "properties": { "segment_id": "synthetic_v0_edge_50", "node_from": "synthetic_v0_station", "node_to": "gsr_way_610079719", "length_m": 318.04508131375565, "data_version": "synthetic_v0", "data_classification": "synthetic_v0_not_real_road" }, "geometry": { "type": "LineString", "coordinates": [ [ 114.39928650313233, 30.47879404584009 ], [ 114.401079063517898, 30.47638286701083 ] ] } },
{ "type": "Feature", "properties": { "segment_id": "synthetic_v0_edge_51", "node_from": "synthetic_v0_station", "node_to": "gsr_way_610079720", "length_m": 343.23480757517257, "data_version": "synthetic_v0", "data_classification": "synthetic_v0_not_real_road" }, "geometry": { "type": "LineString", "coordinates": [ [ 114.39928650313233, 30.47879404584009 ], [ 114.401438996384755, 30.476323642295583 ] ] } },
{ "type": "Feature", "properties": { "segment_id": "synthetic_v0_edge_52", "node_from": "synthetic_v0_station", "node_to": "gsr_way_610079721", "length_m": 357.1291757333949, "data_version": "synthetic_v0", "data_classification": "synthetic_v0_not_real_road" }, "geometry": { "type": "LineString", "coordinates": [ [ 114.39928650313233, 30.47879404584009 ], [ 114.401788136557826, 30.476411805404808 ] ] } },
{ "type": "Feature", "properties": { "segment_id": "synthetic_v0_edge_53", "node_from": "synthetic_v0_station", "node_to": "gsr_way_610182736", "length_m": 232.83185365047521, "data_version": "synthetic_v0", "data_classification": "synthetic_v0_not_real_road" }, "geometry": { "type": "LineString", "coordinates": [ [ 114.39928650313233, 30.47879404584009 ], [ 114.399259040667715, 30.476694732257851 ] ] } },
{ "type": "Feature", "properties": { "segment_id": "synthetic_v0_edge_54", "node_from": "synthetic_v0_station", "node_to": "gsr_way_610187208", "length_m": 337.95751229839641, "data_version": "synthetic_v0", "data_classification": "synthetic_v0_not_real_road" }, "geometry": { "type": "LineString", "coordinates": [ [ 114.39928650313233, 30.47879404584009 ], [ 114.400866905268259, 30.481516691195907 ] ] } },
{ "type": "Feature", "properties": { "segment_id": "synthetic_v0_edge_55", "node_from": "synthetic_v0_station", "node_to": "gsr_way_799097623", "length_m": 384.48975758192591, "data_version": "synthetic_v0", "data_classification": "synthetic_v0_not_real_road" }, "geometry": { "type": "LineString", "coordinates": [ [ 114.39928650313233, 30.47879404584009 ], [ 114.401966473266995, 30.481369294427342 ] ] } },
{ "type": "Feature", "properties": { "segment_id": "synthetic_v0_edge_56", "node_from": "synthetic_v0_station", "node_to": "gsr_way_799097624", "length_m": 320.29176027386092, "data_version": "synthetic_v0", "data_classification": "synthetic_v0_not_real_road" }, "geometry": { "type": "LineString", "coordinates": [ [ 114.39928650313233, 30.47879404584009 ], [ 114.400080842902923, 30.481598978284904 ] ] } },
{ "type": "Feature", "properties": { "segment_id": "synthetic_v0_edge_57", "node_from": "synthetic_v0_station", "node_to": "gsr_way_799097625", "length_m": 318.63840626924826, "data_version": "synthetic_v0", "data_classification": "synthetic_v0_not_real_road" }, "geometry": { "type": "LineString", "coordinates": [ [ 114.39928650313233, 30.47879404584009 ], [ 114.399297662188175, 30.481667195946095 ] ] } },
{ "type": "Feature", "properties": { "segment_id": "synthetic_v0_edge_58", "node_from": "synthetic_v0_station", "node_to": "gsr_way_799097626", "length_m": 279.02738753931845, "data_version": "synthetic_v0", "data_classification": "synthetic_v0_not_real_road" }, "geometry": { "type": "LineString", "coordinates": [ [ 114.39928650313233, 30.47879404584009 ], [ 114.400422334540821, 30.481109737948096 ] ] } },
{ "type": "Feature", "properties": { "segment_id": "synthetic_v0_edge_59", "node_from": "synthetic_v0_station", "node_to": "gsr_way_799097627", "length_m": 266.41011097495351, "data_version": "synthetic_v0", "data_classification": "synthetic_v0_not_real_road" }, "geometry": { "type": "LineString", "coordinates": [ [ 114.39928650313233, 30.47879404584009 ], [ 114.399639843579223, 30.48117669567263 ] ] } },
{ "type": "Feature", "properties": { "segment_id": "synthetic_v0_edge_60", "node_from": "synthetic_v0_station", "node_to": "gsr_way_799097629", "length_m": 310.86492791115904, "data_version": "synthetic_v0", "data_classification": "synthetic_v0_not_real_road" }, "geometry": { "type": "LineString", "coordinates": [ [ 114.39928650313233, 30.47879404584009 ], [ 114.401483349967052, 30.480852400001638 ] ] } },
{ "type": "Feature", "properties": { "segment_id": "synthetic_v0_edge_61", "node_from": "synthetic_v0_station", "node_to": "gsr_way_799097631", "length_m": 338.17545297288973, "data_version": "synthetic_v0", "data_classification": "synthetic_v0_not_real_road" }, "geometry": { "type": "LineString", "coordinates": [ [ 114.39928650313233, 30.47879404584009 ], [ 114.402734843000459, 30.478179281847368 ] ] } },
{ "type": "Feature", "properties": { "segment_id": "synthetic_v0_edge_62", "node_from": "synthetic_v0_station", "node_to": "gsr_way_799278669", "length_m": 561.54426740803331, "data_version": "synthetic_v0", "data_classification": "synthetic_v0_not_real_road" }, "geometry": { "type": "LineString", "coordinates": [ [ 114.39928650313233, 30.47879404584009 ], [ 114.403748118767425, 30.482066043145757 ] ] } }
]
}
