{
"type": "FeatureCollection",
"name": "roads_or_feasible_space",
"crs": { "type": "name", "properties": { "name": "urn:ogc:def:crs:OGC:1.3:CRS84" } },
"features": [
{ "type": "Feature", "properties": { "feature_id": "synthetic_v0_edge_1", "data_version": "synthetic_v0", "spatial_role": "synthetic_v0_feasible_space" }, "geometry": { "type": "LineString", "coordinates": [ [ 114.39928650313233, 30.47879404584009 ], [ 114.396937859916676, 30.479618979593258 ] ] } },
{ "type": "Feature", "properties": { "feature_id": "synthetic_v0_edge_2", "data_version": "synthetic_v0", "spatial_role": "synthetic_v0_feasible_space" }, "geometry": { "type": "LineString", "coordinates": [ [ 114.39928650313233, 30.47879404584009 ], [ 114.397831499989039, 30.481049249990981 ] ] } },
{ "type": "Feature", "properties": { "feature_id": "synthetic_v0_edge_3", "data_version": "synthetic_v0", "spatial_role": "synthetic_v0_feasible_space" }, "geometry": { "type": "LineString", "coordinates": [ [ 114.39928650313233, 30.47879404584009 ], [ 114.401060863906011, 30.476736042451908 ] ] } },
{ "type": "Feature", "properties": { "feature_id": "synthetic_v0_edge_4", "data_version": "synthetic_v0", "spatial_role": "synthetic_v0_feasible_space" }, "geometry": { "type": "LineString", "coordinates": [ [ 114.39928650313233, 30.47879404584009 ], [ 114.401778420756614, 30.476764976096561 ] ] } },
{ "type": "Feature", "properties": { "feature_id": "synthetic_v0_edge_5", "data_version": "synthetic_v0", "spatial_role": "synthetic_v0_feasible_space" }, "geometry": { "type": "LineString", "coordinates": [ [ 114.39928650313233, 30.47879404584009 ], [ 114.397748790219381, 30.476604429007942 ] ] } },
{ "type": "Feature", "properties": { "feature_id": "synthetic_v0_edge_6", "data_version": "synthetic_v0", "spatial_role": "synthetic_v0_feasible_space" }, "geometry": { "type": "LineString", "coordinates": [ [ 114.39928650313233, 30.47879404584009 ], [ 114.403104554089921, 30.481044758605488 ] ] } },
{ "type": "Feature", "properties": { "feature_id": "synthetic_v0_edge_7", "data_version": "synthetic_v0", "spatial_role": "synthetic_v0_feasible_space" }, "geometry": { "type": "LineString", "coordinates": [ [ 114.39928650313233, 30.47879404584009 ], [ 114.401712605062571, 30.479289190279253 ] ] } },
{ "type": "Feature", "properties": { "feature_id": "synthetic_v0_edge_8", "data_version": "synthetic_v0", "spatial_role": "synthetic_v0_feasible_space" }, "geometry": { "type": "LineString", "coordinates": [ [ 114.39928650313233, 30.47879404584009 ], [ 114.401265960870759, 30.480024983891109 ] ] } },
{ "type": "Feature", "properties": { "feature_id": "synthetic_v0_edge_9", "data_version": "synthetic_v0", "spatial_role": "synthetic_v0_feasible_space" }, "geometry": { "type": "LineString", "coordinates": [ [ 114.39928650313233, 30.47879404584009 ], [ 114.400465399985066, 30.480176300040497 ] ] } },
{ "type": "Feature", "properties": { "feature_id": "synthetic_v0_edge_10", "data_version": "synthetic_v0", "spatial_role": "synthetic_v0_feasible_space" }, "geometry": { "type": "LineString", "coordinates": [ [ 114.39928650313233, 30.47879404584009 ], [ 114.400467938794193, 30.480464178643839 ] ] } },
{ "type": "Feature", "properties": { "feature_id": "synthetic_v0_edge_11", "data_version": "synthetic_v0", "spatial_role": "synthetic_v0_feasible_space" }, "geometry": { "type": "LineString", "coordinates": [ [ 114.39928650313233, 30.47879404584009 ], [ 114.401093475685371, 30.480453053482702 ] ] } },
{ "type": "Feature", "properties": { "feature_id": "synthetic_v0_edge_12", "data_version": "synthetic_v0", "spatial_role": "synthetic_v0_feasible_space" }, "geometry": { "type": "LineString", "coordinates": [ [ 114.39928650313233, 30.47879404584009 ], [ 114.400809839591659, 30.480652678103052 ] ] } },
{ "type": "Feature", "properties": { "feature_id": "synthetic_v0_edge_13", "data_version": "synthetic_v0", "spatial_role": "synthetic_v0_feasible_space" }, "geometry": { "type": "LineString", "coordinates": [ [ 114.39928650313233, 30.47879404584009 ], [ 114.400504789332444, 30.480769222810235 ] ] } },
{ "type": "Feature", "properties": { "feature_id": "synthetic_v0_edge_14", "data_version": "synthetic_v0", "spatial_role": "synthetic_v0_feasible_space" }, "geometry": { "type": "LineString", "coordinates": [ [ 114.39928650313233, 30.47879404584009 ], [ 114.40255199828664, 30.479717736073571 ] ] } },
{ "type": "Feature", "properties": { "feature_id": "synthetic_v0_edge_15", "data_version": "synthetic_v0", "spatial_role": "synthetic_v0_feasible_space" }, "geometry": { "type": "LineString", "coordinates": [ [ 114.39928650313233, 30.47879404584009 ], [ 114.403251040313449, 30.480000014661695 ] ] } },
{ "type": "Feature", "properties": { "feature_id": "synthetic_v0_edge_16", "data_version": "synthetic_v0", "spatial_role": "synthetic_v0_feasible_space" }, "geometry": { "type": "LineString", "coordinates": [ [ 114.39928650313233, 30.47879404584009 ], [ 114.398311690648612, 30.481498146525634 ] ] } },
{ "type": "Feature", "properties": { "feature_id": "synthetic_v0_edge_17", "data_version": "synthetic_v0", "spatial_role": "synthetic_v0_feasible_space" }, "geometry": { "type": "LineString", "coordinates": [ [ 114.39928650313233, 30.47879404584009 ], [ 114.397958599991398, 30.480592900119778 ] ] } },
{ "type": "Feature", "properties": { "feature_id": "synthetic_v0_edge_18", "data_version": "synthetic_v0", "spatial_role": "synthetic_v0_feasible_space" }, "geometry": { "type": "LineString", "coordinates": [ [ 114.39928650313233, 30.47879404584009 ], [ 114.397903165834805, 30.479965774186589 ] ] } },
{ "type": "Feature", "properties": { "feature_id": "synthetic_v0_edge_19", "data_version": "synthetic_v0", "spatial_role": "synthetic_v0_feasible_space" }, "geometry": { "type": "LineString", "coordinates": [ [ 114.39928650313233, 30.47879404584009 ], [ 114.397860049996069, 30.479397800132322 ] ] } },
{ "type": "Feature", "properties": { "feature_id": "synthetic_v0_edge_20", "data_version": "synthetic_v0", "spatial_role": "synthetic_v0_feasible_space" }, "geometry": { "type": "LineString", "coordinates": [ [ 114.39928650313233, 30.47879404584009 ], [ 114.398389019328022, 30.479508337491882 ] ] } },
{ "type": "Feature", "properties": { "feature_id": "synthetic_v0_edge_21", "data_version": "synthetic_v0", "spatial_role": "synthetic_v0_feasible_space" }, "geometry": { "type": "LineString", "coordinates": [ [ 114.39928650313233, 30.47879404584009 ], [ 114.399389542267059, 30.479987547070106 ] ] } },
{ "type": "Feature", "properties": { "feature_id": "synthetic_v0_edge_22", "data_version": "synthetic_v0", "spatial_role": "synthetic_v0_feasible_space" }, "geometry": { "type": "LineString", "coordinates": [ [ 114.39928650313233, 30.47879404584009 ], [ 114.399590869090119, 30.478218432829404 ] ] } },
{ "type": "Feature", "properties": { "feature_id": "synthetic_v0_edge_23", "data_version": "synthetic_v0", "spatial_role": "synthetic_v0_feasible_space" }, "geometry": { "type": "LineString", "coordinates": [ [ 114.39928650313233, 30.47879404584009 ], [ 114.400303703700814, 30.47827481494317 ] ] } },
{ "type": "Feature", "properties": { "feature_id": "synthetic_v0_edge_24", "data_version": "synthetic_v0", "spatial_role": "synthetic_v0_feasible_space" }, "geometry": { "type": "LineString", "coordinates": [ [ 114.39928650313233, 30.47879404584009 ], [ 114.4009546012919, 30.478120552286491 ] ] } },
{ "type": "Feature", "properties": { "feature_id": "synthetic_v0_edge_25", "data_version": "synthetic_v0", "spatial_role": "synthetic_v0_feasible_space" }, "geometry": { "type": "LineString", "coordinates": [ [ 114.39928650313233, 30.47879404584009 ], [ 114.400674584097459, 30.477736824593574 ] ] } },
{ "type": "Feature", "properties": { "feature_id": "synthetic_v0_edge_26", "data_version": "synthetic_v0", "spatial_role": "synthetic_v0_feasible_space" }, "geometry": { "type": "LineString", "coordinates": [ [ 114.39928650313233, 30.47879404584009 ], [ 114.399961241354873, 30.477693472336636 ] ] } },
{ "type": "Feature", "properties": { "feature_id": "synthetic_v0_edge_27", "data_version": "synthetic_v0", "spatial_role": "synthetic_v0_feasible_space" }, "geometry": { "type": "LineString", "coordinates": [ [ 114.39928650313233, 30.47879404584009 ], [ 114.399227738685724, 30.477782548574556 ] ] } },
{ "type": "Feature", "properties": { "feature_id": "synthetic_v0_edge_28", "data_version": "synthetic_v0", "spatial_role": "synthetic_v0_feasible_space" }, "geometry": { "type": "LineString", "coordinates": [ [ 114.39928650313233, 30.47879404584009 ], [ 114.398263768166444, 30.477818453358392 ] ] } },
{ "type": "Feature", "properties": { "feature_id": "synthetic_v0_edge_29", "data_version": "synthetic_v0", "spatial_role": "synthetic_v0_feasible_space" }, "geometry": { "type": "LineString", "coordinates": [ [ 114.39928650313233, 30.47879404584009 ], [ 114.398453921571189, 30.478139705917098 ] ] } },
{ "type": "Feature", "properties": { "feature_id": "synthetic_v0_edge_30", "data_version": "synthetic_v0", "spatial_role": "synthetic_v0_feasible_space" }, "geometry": { "type": "LineString", "coordinates": [ [ 114.39928650313233, 30.47879404584009 ], [ 114.398652083332323, 30.478385416698909 ] ] } },
{ "type": "Feature", "properties": { "feature_id": "synthetic_v0_edge_31", "data_version": "synthetic_v0", "spatial_role": "synthetic_v0_feasible_space" }, "geometry": { "type": "LineString", "coordinates": [ [ 114.39928650313233, 30.47879404584009 ], [ 114.398950000007304, 30.478680000034601 ] ] } },
{ "type": "Feature", "properties": { "feature_id": "synthetic_v0_edge_32", "data_version": "synthetic_v0", "spatial_role": "synthetic_v0_feasible_space" }, "geometry": { "type": "LineString", "coordinates": [ [ 114.39928650313233, 30.47879404584009 ], [ 114.399322622778882, 30.478652811576502 ] ] } },
{ "type": "Feature", "properties": { "feature_id": "synthetic_v0_edge_33", "data_version": "synthetic_v0", "spatial_role": "synthetic_v0_feasible_space" }, "geometry": { "type": "LineString", "coordinates": [ [ 114.39928650313233, 30.47879404584009 ], [ 114.399063888862301, 30.478345611153316 ] ] } },
{ "type": "Feature", "properties": { "feature_id": "synthetic_v0_edge_34", "data_version": "synthetic_v0", "spatial_role": "synthetic_v0_feasible_space" }, "geometry": { "type": "LineString", "coordinates": [ [ 114.39928650313233, 30.47879404584009 ], [ 114.398828748705526, 30.478085625745742 ] ] } },
{ "type": "Feature", "properties": { "feature_id": "synthetic_v0_edge_35", "data_version": "synthetic_v0", "spatial_role": "synthetic_v0_feasible_space" }, "geometry": { "type": "LineString", "coordinates": [ [ 114.39928650313233, 30.47879404584009 ], [ 114.398592098547155, 30.477785523318953 ] ] } },
{ "type": "Feature", "properties": { "feature_id": "synthetic_v0_edge_36", "data_version": "synthetic_v0", "spatial_role": "synthetic_v0_feasible_space" }, "geometry": { "type": "LineString", "coordinates": [ [ 114.39928650313233, 30.47879404584009 ], [ 114.397818584125659, 30.478201995095976 ] ] } },
{ "type": "Feature", "properties": { "feature_id": "synthetic_v0_edge_37", "data_version": "synthetic_v0", "spatial_role": "synthetic_v0_feasible_space" }, "geometry": { "type": "LineString", "coordinates": [ [ 114.39928650313233, 30.47879404584009 ], [ 114.399121474284627, 30.477359000775706 ] ] } },
{ "type": "Feature", "properties": { "feature_id": "synthetic_v0_edge_38", "data_version": "synthetic_v0", "spatial_role": "synthetic_v0_feasible_space" }, "geometry": { "type": "LineString", "coordinates": [ [ 114.39928650313233, 30.47879404584009 ], [ 114.399767981578918, 30.476417919650494 ] ] } },
{ "type": "Feature", "properties": { "feature_id": "synthetic_v0_edge_39", "data_version": "synthetic_v0", "spatial_role": "synthetic_v0_feasible_space" }, "geometry": { "type": "LineString", "coordinates": [ [ 114.39928650313233, 30.47879404584009 ], [ 114.399967711532625, 30.477314378366351 ] ] } },
{ "type": "Feature", "properties": { "feature_id": "synthetic_v0_edge_40", "data_version": "synthetic_v0", "spatial_role": "synthetic_v0_feasible_space" }, "geometry": { "type": "LineString", "coordinates": [ [ 114.39928650313233, 30.47879404584009 ], [ 114.400759546049102, 30.477345614365426 ] ] } },
{ "type": "Feature", "properties": { "feature_id": "synthetic_v0_edge_41", "data_version": "synthetic_v0", "spatial_role": "synthetic_v0_feasible_space" }, "geometry": { "type": "LineString", "coordinates": [ [ 114.39928650313233, 30.47879404584009 ], [ 114.401551126815264, 30.477716246488416 ] ] } },
{ "type": "Feature", "properties": { "feature_id": "synthetic_v0_edge_42", "data_version": "synthetic_v0", "spatial_role": "synthetic_v0_feasible_space" }, "geometry": { "type": "LineString", "coordinates": [ [ 114.39928650313233, 30.47879404584009 ], [ 114.402860969928341, 30.479018835610869 ] ] } },
{ "type": "Feature", "properties": { "feature_id": "synthetic_v0_edge_43", "data_version": "synthetic_v0", "spatial_role": "synthetic_v0_feasible_space" }, "geometry": { "type": "LineString", "coordinates": [ [ 114.39928650313233, 30.47879404584009 ], [ 114.402746068847605, 30.478594794337845 ] ] } },
{ "type": "Feature", "properties": { "feature_id": "synthetic_v0_edge_44", "data_version": "synthetic_v0", "spatial_role": "synthetic_v0_feasible_space" }, "geometry": { "type": "LineString", "coordinates": [ [ 114.39928650313233, 30.47879404584009 ], [ 114.40273738439474, 30.477449509579721 ] ] } },
{ "type": "Feature", "properties": { "feature_id": "synthetic_v0_edge_45", "data_version": "synthetic_v0", "spatial_role": "synthetic_v0_feasible_space" }, "geometry": { "type": "LineString", "coordinates": [ [ 114.39928650313233, 30.47879404584009 ], [ 114.402886373235702, 30.476905241413167 ] ] } },
{ "type": "Feature", "properties": { "feature_id": "synthetic_v0_edge_46", "data_version": "synthetic_v0", "spatial_role": "synthetic_v0_feasible_space" }, "geometry": { "type": "LineString", "coordinates": [ [ 114.39928650313233, 30.47879404584009 ], [ 114.402116540670619, 30.476838524224725 ] ] } },
{ "type": "Feature", "properties": { "feature_id": "synthetic_v0_edge_47", "data_version": "synthetic_v0", "spatial_role": "synthetic_v0_feasible_space" }, "geometry": { "type": "LineString", "coordinates": [ [ 114.39928650313233, 30.47879404584009 ], [ 114.401392860270306, 30.47681352536792 ] ] } },
{ "type": "Feature", "properties": { "feature_id": "synthetic_v0_edge_48", "data_version": "synthetic_v0", "spatial_role": "synthetic_v0_feasible_space" }, "geometry": { "type": "LineString", "coordinates": [ [ 114.39928650313233, 30.47879404584009 ], [ 114.400714359954151, 30.476780925430873 ] ] } },
{ "type": "Feature", "properties": { "feature_id": "synthetic_v0_edge_49", "data_version": "synthetic_v0", "spatial_role": "synthetic_v0_feasible_space" }, "geometry": { "type": "LineString", "coordinates": [ [ 114.39928650313233, 30.47879404584009 ], [ 114.400808709480714, 30.476375630347647 ] ] } },
{ "type": "Feature", "properties": { "feature_id": "synthetic_v0_edge_50", "data_version": "synthetic_v0", "spatial_role": "synthetic_v0_feasible_space" }, "geometry": { "type": "LineString", "coordinates": [ [ 114.39928650313233, 30.47879404584009 ], [ 114.401079063517898, 30.47638286701083 ] ] } },
{ "type": "Feature", "properties": { "feature_id": "synthetic_v0_edge_51", "data_version": "synthetic_v0", "spatial_role": "synthetic_v0_feasible_space" }, "geometry": { "type": "LineString", "coordinates": [ [ 114.39928650313233, 30.47879404584009 ], [ 114.401438996384755, 30.476323642295583 ] ] } },
{ "type": "Feature", "properties": { "feature_id": "synthetic_v0_edge_52", "data_version": "synthetic_v0", "spatial_role": "synthetic_v0_feasible_space" }, "geometry": { "type": "LineString", "coordinates": [ [ 114.39928650313233, 30.47879404584009 ], [ 114.401788136557826, 30.476411805404808 ] ] } },
{ "type": "Feature", "properties": { "feature_id": "synthetic_v0_edge_53", "data_version": "synthetic_v0", "spatial_role": "synthetic_v0_feasible_space" }, "geometry": { "type": "LineString", "coordinates": [ [ 114.39928650313233, 30.47879404584009 ], [ 114.399259040667715, 30.476694732257851 ] ] } },
{ "type": "Feature", "properties": { "feature_id": "synthetic_v0_edge_54", "data_version": "synthetic_v0", "spatial_role": "synthetic_v0_feasible_space" }, "geometry": { "type": "LineString", "coordinates": [ [ 114.39928650313233, 30.47879404584009 ], [ 114.400866905268259, 30.481516691195907 ] ] } },
{ "type": "Feature", "properties": { "feature_id": "synthetic_v0_edge_55", "data_version": "synthetic_v0", "spatial_role": "synthetic_v0_feasible_space" }, "geometry": { "type": "LineString", "coordinates": [ [ 114.39928650313233, 30.47879404584009 ], [ 114.401966473266995, 30.481369294427342 ] ] } },
{ "type": "Feature", "properties": { "feature_id": "synthetic_v0_edge_56", "data_version": "synthetic_v0", "spatial_role": "synthetic_v0_feasible_space" }, "geometry": { "type": "LineString", "coordinates": [ [ 114.39928650313233, 30.47879404584009 ], [ 114.400080842902923, 30.481598978284904 ] ] } },
{ "type": "Feature", "properties": { "feature_id": "synthetic_v0_edge_57", "data_version": "synthetic_v0", "spatial_role": "synthetic_v0_feasible_space" }, "geometry": { "type": "LineString", "coordinates": [ [ 114.39928650313233, 30.47879404584009 ], [ 114.399297662188175, 30.481667195946095 ] ] } },
{ "type": "Feature", "properties": { "feature_id": "synthetic_v0_edge_58", "data_version": "synthetic_v0", "spatial_role": "synthetic_v0_feasible_space" }, "geometry": { "type": "LineString", "coordinates": [ [ 114.39928650313233, 30.47879404584009 ], [ 114.400422334540821, 30.481109737948096 ] ] } },
{ "type": "Feature", "properties": { "feature_id": "synthetic_v0_edge_59", "data_version": "synthetic_v0", "spatial_role": "synthetic_v0_feasible_space" }, "geometry": { "type": "LineString", "coordinates": [ [ 114.39928650313233, 30.47879404584009 ], [ 114.399639843579223, 30.48117669567263 ] ] } },
{ "type": "Feature", "properties": { "feature_id": "synthetic_v0_edge_60", "data_version": "synthetic_v0", "spatial_role": "synthetic_v0_feasible_space" }, "geometry": { "type": "LineString", "coordinates": [ [ 114.39928650313233, 30.47879404584009 ], [ 114.401483349967052, 30.480852400001638 ] ] } },
{ "type": "Feature", "properties": { "feature_id": "synthetic_v0_edge_61", "data_version": "synthetic_v0", "spatial_role": "synthetic_v0_feasible_space" }, "geometry": { "type": "LineString", "coordinates": [ [ 114.39928650313233, 30.47879404584009 ], [ 114.402734843000459, 30.478179281847368 ] ] } },
{ "type": "Feature", "properties": { "feature_id": "synthetic_v0_edge_62", "data_version": "synthetic_v0", "spatial_role": "synthetic_v0_feasible_space" }, "geometry": { "type": "LineString", "coordinates": [ [ 114.39928650313233, 30.47879404584009 ], [ 114.403748118767425, 30.482066043145757 ] ] } }
]
}
