{
"type": "FeatureCollection",
"name": "candidate_network",
"crs": { "type": "name", "properties": { "name": "urn:ogc:def:crs:OGC:1.3:CRS84" } },
"features": [
{ "type": "Feature", "properties": { "segment_id": "synthetic_v01_edge_01", "node_from": "gsr_way_1314562851", "node_to": "gsr_way_610079716", "length_m": 33.028000117771306, "source": "synthetic_v0.1", "road_constrained": false, "engineering_approved": false, "assumption_flag": true, "data_version": "guanggu-v0.3-20260823" }, "geometry": { "type": "LineString", "coordinates": [ [ 114.401060863906011, 30.476736042451908 ], [ 114.401392860270306, 30.47681352536792 ] ] } },
{ "type": "Feature", "properties": { "segment_id": "synthetic_v01_edge_02", "node_from": "gsr_way_1314562851", "node_to": "gsr_way_610079719", "length_m": 39.206613928581618, "source": "synthetic_v0.1", "road_constrained": false, "engineering_approved": false, "assumption_flag": true, "data_version": "guanggu-v0.3-20260823" }, "geometry": { "type": "LineString", "coordinates": [ [ 114.401060863906011, 30.476736042451908 ], [ 114.401079063517898, 30.47638286701083 ] ] } },
{ "type": "Feature", "properties": { "segment_id": "synthetic_v01_edge_03", "node_from": "gsr_way_1314562852", "node_to": "gsr_way_610079716", "length_m": 37.425114124196618, "source": "synthetic_v0.1", "road_constrained": false, "engineering_approved": false, "assumption_flag": true, "data_version": "guanggu-v0.3-20260823" }, "geometry": { "type": "LineString", "coordinates": [ [ 114.401778420756614, 30.476764976096561 ], [ 114.401392860270306, 30.47681352536792 ] ] } },
{ "type": "Feature", "properties": { "segment_id": "synthetic_v01_edge_04", "node_from": "gsr_way_1314562852", "node_to": "gsr_way_610079721", "length_m": 39.178193065976473, "source": "synthetic_v0.1", "road_constrained": false, "engineering_approved": false, "assumption_flag": true, "data_version": "guanggu-v0.3-20260823" }, "geometry": { "type": "LineString", "coordinates": [ [ 114.401778420756614, 30.476764976096561 ], [ 114.401788136557826, 30.476411805404808 ] ] } },
{ "type": "Feature", "properties": { "segment_id": "synthetic_v01_edge_05", "node_from": "gsr_way_610079716", "node_to": "gsr_way_610079719", "length_m": 56.476890741576597, "source": "synthetic_v0.1", "road_constrained": false, "engineering_approved": false, "assumption_flag": true, "data_version": "guanggu-v0.3-20260823" }, "geometry": { "type": "LineString", "coordinates": [ [ 114.401392860270306, 30.47681352536792 ], [ 114.401079063517898, 30.47638286701083 ] ] } },
{ "type": "Feature", "properties": { "segment_id": "synthetic_v01_edge_06", "node_from": "gsr_way_610079716", "node_to": "gsr_way_610079720", "length_m": 54.509115289861157, "source": "synthetic_v0.1", "road_constrained": false, "engineering_approved": false, "assumption_flag": true, "data_version": "guanggu-v0.3-20260823" }, "geometry": { "type": "LineString", "coordinates": [ [ 114.401392860270306, 30.47681352536792 ], [ 114.401438996384755, 30.476323642295583 ] ] } },
{ "type": "Feature", "properties": { "segment_id": "synthetic_v01_edge_07", "node_from": "gsr_way_610079716", "node_to": "gsr_way_610079721", "length_m": 58.536051333353925, "source": "synthetic_v0.1", "road_constrained": false, "engineering_approved": false, "assumption_flag": true, "data_version": "guanggu-v0.3-20260823" }, "geometry": { "type": "LineString", "coordinates": [ [ 114.401392860270306, 30.47681352536792 ], [ 114.401788136557826, 30.476411805404808 ] ] } },
{ "type": "Feature", "properties": { "segment_id": "synthetic_v01_edge_08", "node_from": "gsr_way_610079719", "node_to": "gsr_way_610079720", "length_m": 35.192583342885719, "source": "synthetic_v0.1", "road_constrained": false, "engineering_approved": false, "assumption_flag": true, "data_version": "guanggu-v0.3-20260823" }, "geometry": { "type": "LineString", "coordinates": [ [ 114.401079063517898, 30.47638286701083 ], [ 114.401438996384755, 30.476323642295583 ] ] } },
{ "type": "Feature", "properties": { "segment_id": "synthetic_v01_edge_09", "node_from": "gsr_way_610079720", "node_to": "gsr_way_610079721", "length_m": 34.933680545356147, "source": "synthetic_v0.1", "road_constrained": false, "engineering_approved": false, "assumption_flag": true, "data_version": "guanggu-v0.3-20260823" }, "geometry": { "type": "LineString", "coordinates": [ [ 114.401438996384755, 30.476323642295583 ], [ 114.401788136557826, 30.476411805404808 ] ] } },
{ "type": "Feature", "properties": { "segment_id": "synthetic_v01_edge_10", "node_from": "synthetic_v01_station", "node_to": "gsr_way_1314562851", "length_m": 68.32334900333548, "source": "synthetic_v0.1", "road_constrained": false, "engineering_approved": false, "assumption_flag": true, "data_version": "guanggu-v0.3-20260823" }, "geometry": { "type": "LineString", "coordinates": [ [ 114.40038228719493, 30.476551388725632 ], [ 114.401060863906011, 30.476736042451908 ] ] } },
{ "type": "Feature", "properties": { "segment_id": "synthetic_v01_edge_11", "node_from": "synthetic_v01_station", "node_to": "gsr_way_610079719", "length_m": 69.49088125657957, "source": "synthetic_v0.1", "road_constrained": false, "engineering_approved": false, "assumption_flag": true, "data_version": "guanggu-v0.3-20260823" }, "geometry": { "type": "LineString", "coordinates": [ [ 114.40038228719493, 30.476551388725632 ], [ 114.401079063517898, 30.47638286701083 ] ] } }
]
}
